{
  "places": [
    {
      "id": "1",
      "place_name": "Hinjawadi Maan Phase 3"
    },
    {
      "id": "2",
      "place_name": "Ma Na Pa"
    },
    {
      "id": "3",
      "place_name": "Kondhwa Bk"
    },
    {
      "id": "4",
      "place_name": "Kothrud Depot"
    },
    {
      "id": "5",
      "place_name": "Lohgaon"
    },
    {
      "id": "6",
      "place_name": "Katraj (Vai Kothrud Depo)"
    },
    {
      "id": "7",
      "place_name": "Katraj"
    },
    {
      "id": "8",
      "place_name": "Hinjawadi Maan Phase 3 (Vai Kothrud Depo)"
    },
    {
      "id": "9",
      "place_name": "Swargate"
    },
    {
      "id": "10",
      "place_name": "DSK Vishwa"
    },
    {
      "id": "11",
      "place_name": "Deccan Gymkhana"
    },
    {
      "id": "12",
      "place_name": "Balewadi Depot"
    },
    {
      "id": "13",
      "place_name": "Galinde Path"
    },
    {
      "id": "14",
      "place_name": "Pimplegurav"
    },
    {
      "id": "15",
      "place_name": "Pune Station"
    },
    {
      "id": "16",
      "place_name": "Sutardara"
    },
    {
      "id": "17",
      "place_name": "Keshavnagar"
    },
    {
      "id": "18",
      "place_name": "Bhekrainagar"
    },
    {
      "id": "19",
      "place_name": "Mandai"
    },
    {
      "id": "20",
      "place_name": "Appa Balawant Chowk"
    },
    {
      "id": "21",
      "place_name": "Vasantdada Putala Sangvi"
    },
    {
      "id": "22",
      "place_name": "Mhalungegaon"
    },
    {
      "id": "23",
      "place_name": "Khadki Bazar"
    },
    {
      "id": "24",
      "place_name": "Shree Control"
    },
    {
      "id": "25",
      "place_name": "Raykarmala"
    },
    {
      "id": "26",
      "place_name": "Dhayari Maruti Mandir"
    },
    {
      "id": "27",
      "place_name": "Saritanagari"
    },
    {
      "id": "28",
      "place_name": "Shaniwarwada Stand"
    },
    {
      "id": "29",
      "place_name": "Shaniwarwada"
    },
    {
      "id": "30",
      "place_name": "Marketyard"
    },
    {
      "id": "31",
      "place_name": "Venutai Chavan College"
    },
    {
      "id": "32",
      "place_name": "Suncity"
    },
    {
      "id": "33",
      "place_name": "Vadgaon Bk"
    },
    {
      "id": "34",
      "place_name": "Nanded"
    },
    {
      "id": "35",
      "place_name": "Alandi"
    },
    {
      "id": "36",
      "place_name": "Vishrantwadi"
    },
    {
      "id": "37",
      "place_name": "Kalpataru"
    },
    {
      "id": "38",
      "place_name": "Indoorance System"
    },
    {
      "id": "39",
      "place_name": "Bhosari"
    },
    {
      "id": "40",
      "place_name": "Indoorance System Chakan Mhalunge"
    },
    {
      "id": "41",
      "place_name": "Bhosari Terminal"
    },
    {
      "id": "42",
      "place_name": "Nehrunagar Depo"
    },
    {
      "id": "43",
      "place_name": "Chinchwadgaon"
    },
    {
      "id": "44",
      "place_name": "Bhakti Shakti"
    },
    {
      "id": "45",
      "place_name": "Dapodi Mantri Niketan"
    },
    {
      "id": "46",
      "place_name": "Bopkhel"
    },
    {
      "id": "47",
      "place_name": "Kamalpark"
    },
    {
      "id": "48",
      "place_name": "Pimplenilakh"
    },
    {
      "id": "49",
      "place_name": "Upper Depot"
    },
    {
      "id": "50",
      "place_name": "Yewalewadi"
    },
    {
      "id": "51",
      "place_name": "Shivajinagar"
    },
    {
      "id": "52",
      "place_name": "Vadgaonsheri"
    },
    {
      "id": "53",
      "place_name": "Ma Na Pa (Via Shubham)"
    },
    {
      "id": "54",
      "place_name": "Vadgaonsheri (Via Shubham)"
    },
    {
      "id": "55",
      "place_name": "Shubham Society Nagar Road"
    },
    {
      "id": "56",
      "place_name": "Vadgaon Sheri"
    },
    {
      "id": "57",
      "place_name": "Ma Na Pa (Via Anand Park)"
    },
    {
      "id": "58",
      "place_name": "Vadgaon Sheri (Via Anand Park)"
    },
    {
      "id": "59",
      "place_name": "Anand Park"
    },
    {
      "id": "60",
      "place_name": "Sainathnagar"
    },
    {
      "id": "61",
      "place_name": "Sainath nagar"
    },
    {
      "id": "62",
      "place_name": "Vidyanagar"
    },
    {
      "id": "63",
      "place_name": "Wadebolhai"
    },
    {
      "id": "64",
      "place_name": "Kesnand Phata"
    },
    {
      "id": "65",
      "place_name": "Vadegaon"
    },
    {
      "id": "66",
      "place_name": "Shewalwadi"
    },
    {
      "id": "67",
      "place_name": "VIT College"
    },
    {
      "id": "68",
      "place_name": "Vit College"
    },
    {
      "id": "69",
      "place_name": "Pune Vidhyapeeth"
    },
    {
      "id": "70",
      "place_name": "Upper Depo"
    },
    {
      "id": "71",
      "place_name": "Lake Town Society"
    },
    {
      "id": "72",
      "place_name": "Khandoba Mandir"
    },
    {
      "id": "73",
      "place_name": "Ghotawade Phata"
    },
    {
      "id": "74",
      "place_name": "Galinde Path (Vai Nal Stop)"
    },
    {
      "id": "75",
      "place_name": "Pune Station (Vai Nal Stop)"
    },
    {
      "id": "76",
      "place_name": "Galinde Path (Vai Mhatre Pul)"
    },
    {
      "id": "77",
      "place_name": "Pune Station (Vai Mhatre Pul)"
    },
    {
      "id": "78",
      "place_name": "Sai Sayajinagar"
    },
    {
      "id": "79",
      "place_name": "Kumbre Park"
    },
    {
      "id": "80",
      "place_name": "Kothrud Stand"
    },
    {
      "id": "81",
      "place_name": "Kumbare Park"
    },
    {
      "id": "82",
      "place_name": "Gujrat Colony"
    },
    {
      "id": "83",
      "place_name": "D2 Circle"
    },
    {
      "id": "84",
      "place_name": "Sutarwadi Pashan"
    },
    {
      "id": "85",
      "place_name": "NDA Golmarket"
    },
    {
      "id": "86",
      "place_name": "NDA Gol Market"
    },
    {
      "id": "87",
      "place_name": "Gokhalenagar"
    },
    {
      "id": "88",
      "place_name": "Nhavi Sandas"
    },
    {
      "id": "89",
      "place_name": "Pimpri"
    },
    {
      "id": "90",
      "place_name": "Munjabavasti"
    },
    {
      "id": "91",
      "place_name": "Dhanorigaon"
    },
    {
      "id": "92",
      "place_name": "Pune Station (Via Dhanori)"
    },
    {
      "id": "93",
      "place_name": "Lohgaon (Via Dhanori)"
    },
    {
      "id": "94",
      "place_name": "Dadachi Padal"
    },
    {
      "id": "95",
      "place_name": "Talegaon Dhamdhere"
    },
    {
      "id": "96",
      "place_name": "Koregaon Bhima"
    },
    {
      "id": "97",
      "place_name": "Pabal Phata"
    },
    {
      "id": "98",
      "place_name": "Mundhwagaon"
    },
    {
      "id": "99",
      "place_name": "Vimannagar"
    },
    {
      "id": "100",
      "place_name": "Warje Malwadi"
    },
    {
      "id": "101",
      "place_name": "Kendurgaon"
    },
    {
      "id": "102",
      "place_name": "Kharadi Gaon"
    },
    {
      "id": "103",
      "place_name": "Hadapsar Gadital"
    },
    {
      "id": "104",
      "place_name": "Ma Na Pa (Vai Koregaon Park)"
    },
    {
      "id": "105",
      "place_name": "Keshavnagar (Vai Koregaon Park)"
    },
    {
      "id": "106",
      "place_name": "Kondhwa Hospital"
    },
    {
      "id": "107",
      "place_name": "Kondhwa Gate"
    },
    {
      "id": "108",
      "place_name": "Krushnanagar Mohammadwadi"
    },
    {
      "id": "109",
      "place_name": "Swargate (Vai NIBM)"
    },
    {
      "id": "110",
      "place_name": "Swrgate"
    },
    {
      "id": "111",
      "place_name": "Krushnanagar Mohammadwadi (Vai NIBM)"
    },
    {
      "id": "112",
      "place_name": "Mahammad Wadi"
    },
    {
      "id": "113",
      "place_name": "Azadnagar"
    },
    {
      "id": "114",
      "place_name": "Siddharthnagar"
    },
    {
      "id": "115",
      "place_name": "Salunke Vihar"
    },
    {
      "id": "116",
      "place_name": "Vadachiwadi"
    },
    {
      "id": "117",
      "place_name": "swargate"
    },
    {
      "id": "118",
      "place_name": "Narhegaon"
    },
    {
      "id": "119",
      "place_name": "Natraj Stand"
    },
    {
      "id": "120",
      "place_name": "Na Ta Wadi"
    },
    {
      "id": "121",
      "place_name": "SRP Camp"
    },
    {
      "id": "122",
      "place_name": "Kondhwa Kh"
    },
    {
      "id": "123",
      "place_name": "Theur Factory"
    },
    {
      "id": "124",
      "place_name": "Sarasbaug"
    },
    {
      "id": "125",
      "place_name": "Theur"
    },
    {
      "id": "126",
      "place_name": "Fursungi"
    },
    {
      "id": "127",
      "place_name": "Padmawati"
    },
    {
      "id": "128",
      "place_name": "Manjari Kh"
    },
    {
      "id": "129",
      "place_name": "Jspm College"
    },
    {
      "id": "130",
      "place_name": "JSPM college"
    },
    {
      "id": "131",
      "place_name": "Devachi Uruli"
    },
    {
      "id": "132",
      "place_name": "Bhansali Complex"
    },
    {
      "id": "133",
      "place_name": "Vadkigaon"
    },
    {
      "id": "134",
      "place_name": "Trinity College"
    },
    {
      "id": "135",
      "place_name": "Mohammadwadigaon"
    },
    {
      "id": "136",
      "place_name": "Undrigaon"
    },
    {
      "id": "137",
      "place_name": "Uruli Kanchan"
    },
    {
      "id": "138",
      "place_name": "Holkarwadi"
    },
    {
      "id": "139",
      "place_name": "Swargate (Vai Ram Takedi)"
    },
    {
      "id": "140",
      "place_name": "Mahammad Wadi  (Vai Ram Takedi)"
    },
    {
      "id": "141",
      "place_name": "Manjari Bk"
    },
    {
      "id": "142",
      "place_name": "Sadesatranali"
    },
    {
      "id": "143",
      "place_name": "Mahatma Gandhi Stand"
    },
    {
      "id": "144",
      "place_name": "Ganpati Matha"
    },
    {
      "id": "145",
      "place_name": "Vishalnagar"
    },
    {
      "id": "146",
      "place_name": "Saswad"
    },
    {
      "id": "147",
      "place_name": "Sahkarnagar"
    },
    {
      "id": "148",
      "place_name": "Swargate Depo"
    },
    {
      "id": "149",
      "place_name": "Chintamani Dnyanpith"
    },
    {
      "id": "150",
      "place_name": "Bharati Vidyapeeth"
    },
    {
      "id": "151",
      "place_name": "Gujarwadi"
    },
    {
      "id": "152",
      "place_name": "Jambhulwadi"
    },
    {
      "id": "153",
      "place_name": "Ammunition Factory"
    },
    {
      "id": "154",
      "place_name": "HEMRL Company"
    },
    {
      "id": "155",
      "place_name": "Marnewadi"
    },
    {
      "id": "156",
      "place_name": "Paudgaon"
    },
    {
      "id": "157",
      "place_name": "Khulewadi"
    },
    {
      "id": "158",
      "place_name": "Maharashtra Housing Board Samtanagar"
    },
    {
      "id": "159",
      "place_name": "Charholigaon"
    },
    {
      "id": "160",
      "place_name": "Banergaon"
    },
    {
      "id": "161",
      "place_name": "Someshwarwadi"
    },
    {
      "id": "162",
      "place_name": "Dehugaon"
    },
    {
      "id": "163",
      "place_name": "Nigdi"
    },
    {
      "id": "164",
      "place_name": "Bahulgaon"
    },
    {
      "id": "165",
      "place_name": "Dhankawadi"
    },
    {
      "id": "166",
      "place_name": "Kondhwagate"
    },
    {
      "id": "167",
      "place_name": "Kothrud Depo"
    },
    {
      "id": "168",
      "place_name": "Khamboli"
    },
    {
      "id": "169",
      "place_name": "Warje Hanuman Chowk"
    },
    {
      "id": "170",
      "place_name": "Bhosarigaon"
    },
    {
      "id": "171",
      "place_name": "Shaninagar"
    },
    {
      "id": "172",
      "place_name": "Kalyangaon"
    },
    {
      "id": "173",
      "place_name": "Rahatwadegaon"
    },
    {
      "id": "174",
      "place_name": "Avsarwadi"
    },
    {
      "id": "175",
      "place_name": "Kondhanpur"
    },
    {
      "id": "176",
      "place_name": "Kusgaon"
    },
    {
      "id": "177",
      "place_name": "Khed Shivapur"
    },
    {
      "id": "178",
      "place_name": "Khadakwasla Dharan"
    },
    {
      "id": "179",
      "place_name": "Ambegaon"
    },
    {
      "id": "180",
      "place_name": "Rajas Society"
    },
    {
      "id": "181",
      "place_name": "Katraj Ladies Special"
    },
    {
      "id": "182",
      "place_name": "Shivajinagar Ladies Special"
    },
    {
      "id": "183",
      "place_name": "Bhilarewadi"
    },
    {
      "id": "184",
      "place_name": "Sachchai Mata Mandir"
    },
    {
      "id": "185",
      "place_name": "Taljai Pathar"
    },
    {
      "id": "186",
      "place_name": "Katraj Night Service"
    },
    {
      "id": "187",
      "place_name": "Shivajinagar Night Service"
    },
    {
      "id": "188",
      "place_name": "Pimprigaon"
    },
    {
      "id": "189",
      "place_name": "Gavhanevasti Bhosari"
    },
    {
      "id": "190",
      "place_name": "Mukai Chowk"
    },
    {
      "id": "191",
      "place_name": "Akurdi Railway Station"
    },
    {
      "id": "192",
      "place_name": "Dy Patil College Wadgaonmawal"
    },
    {
      "id": "193",
      "place_name": "Navlakh Umbre"
    },
    {
      "id": "194",
      "place_name": "Vadgaon Mawal"
    },
    {
      "id": "195",
      "place_name": "Dange Chowk"
    },
    {
      "id": "196",
      "place_name": "Walhekarwadi"
    },
    {
      "id": "197",
      "place_name": "Gharkul Vasahat Chikhli"
    },
    {
      "id": "198",
      "place_name": "Rautwadi"
    },
    {
      "id": "199",
      "place_name": "Kasarsai Karkhana"
    },
    {
      "id": "200",
      "place_name": "Chandkhed"
    },
    {
      "id": "201",
      "place_name": "Mhalunge MIDC"
    },
    {
      "id": "202",
      "place_name": "Moshigaon"
    },
    {
      "id": "203",
      "place_name": "Pune Station (Vai Alandi Road)"
    },
    {
      "id": "204",
      "place_name": "Bhosari (Vai Alandi Road)"
    },
    {
      "id": "205",
      "place_name": "Dapodi"
    },
    {
      "id": "206",
      "place_name": "Sambhajinagar"
    },
    {
      "id": "207",
      "place_name": "Gharkul Vasahat Chikali"
    },
    {
      "id": "208",
      "place_name": "Krishanagar"
    },
    {
      "id": "209",
      "place_name": "Krushnanagar"
    },
    {
      "id": "210",
      "place_name": "Mahalungegaon"
    },
    {
      "id": "211",
      "place_name": "Pimpale Gurav"
    },
    {
      "id": "212",
      "place_name": "Pimple Gurav"
    },
    {
      "id": "213",
      "place_name": "Vasasantdada Putla Sangvi"
    },
    {
      "id": "214",
      "place_name": "Chikhali"
    },
    {
      "id": "215",
      "place_name": "Gharkul Vasahat Chikhali"
    },
    {
      "id": "216",
      "place_name": "Masulkar Colony"
    },
    {
      "id": "217",
      "place_name": "Rupeenagar"
    },
    {
      "id": "218",
      "place_name": "Pune Station (Via Yarwada)"
    },
    {
      "id": "219",
      "place_name": "Dehugaon (Via Yarwada)"
    },
    {
      "id": "220",
      "place_name": "Pune Station (Via Wakdevadi)"
    },
    {
      "id": "221",
      "place_name": "Dehugaon (Via Wakdevadi)"
    },
    {
      "id": "222",
      "place_name": "Rahatnigaon"
    },
    {
      "id": "223",
      "place_name": "Pimple Saudagar"
    },
    {
      "id": "224",
      "place_name": "Jambe"
    },
    {
      "id": "225",
      "place_name": "Indrayaninagar"
    },
    {
      "id": "226",
      "place_name": "Santnagar MIDC Police Station"
    },
    {
      "id": "227",
      "place_name": "Mohannagar"
    },
    {
      "id": "228",
      "place_name": "Pimple Nilakh"
    },
    {
      "id": "229",
      "place_name": "Thergaon"
    },
    {
      "id": "230",
      "place_name": "Rajgurunagar"
    },
    {
      "id": "231",
      "place_name": "YCM Hospital (Via Moshi)"
    },
    {
      "id": "232",
      "place_name": "YCM Hospital"
    },
    {
      "id": "233",
      "place_name": "Alandi (Via Moshi)"
    },
    {
      "id": "234",
      "place_name": "Kiwalegaon"
    },
    {
      "id": "235",
      "place_name": "Adarshnagar"
    },
    {
      "id": "236",
      "place_name": "Bhapkar Petrol Pump"
    },
    {
      "id": "237",
      "place_name": "Pune Station (Via Yerwada)"
    },
    {
      "id": "238",
      "place_name": "Bhakti Shakti (Via Yerwada)"
    },
    {
      "id": "239",
      "place_name": "Gharkul Vasahat"
    },
    {
      "id": "240",
      "place_name": "Wakad pul"
    },
    {
      "id": "241",
      "place_name": "Wakad Pul"
    },
    {
      "id": "242",
      "place_name": "Warje Malwadi (Vai YCM)"
    },
    {
      "id": "243",
      "place_name": "Bhakti Shakti (Vai YCM)"
    },
    {
      "id": "244",
      "place_name": "Shewalwadi (Vai YCM)"
    },
    {
      "id": "245",
      "place_name": "Katraj (Vai YCM)"
    },
    {
      "id": "246",
      "place_name": "Nehrunagar Depo (Vai YCM)"
    },
    {
      "id": "247",
      "place_name": "Sambhajinagar (Vai YCM)"
    },
    {
      "id": "248",
      "place_name": "Saket Society"
    },
    {
      "id": "249",
      "place_name": "Sangvi"
    },
    {
      "id": "250",
      "place_name": "Sanaswadi Nandoshi"
    },
    {
      "id": "251",
      "place_name": "Khanapur"
    },
    {
      "id": "252",
      "place_name": "Sinhgad Paytha"
    },
    {
      "id": "253",
      "place_name": "Sinhagad"
    },
    {
      "id": "254",
      "place_name": "Dhayari Maruti Mandi"
    },
    {
      "id": "255",
      "place_name": "Osade Phata"
    },
    {
      "id": "256",
      "place_name": "Pandavnagar"
    },
    {
      "id": "257",
      "place_name": "Shanipar"
    },
    {
      "id": "258",
      "place_name": "Pandavnagar Senapati Bapat Road"
    },
    {
      "id": "259",
      "place_name": "Niljyoti"
    },
    {
      "id": "260",
      "place_name": "Tadiwala Road"
    },
    {
      "id": "261",
      "place_name": "Ghulenagar"
    },
    {
      "id": "262",
      "place_name": "Ghulenager"
    },
    {
      "id": "263",
      "place_name": "Nasrapur"
    },
    {
      "id": "264",
      "place_name": "Sangamwadi"
    },
    {
      "id": "265",
      "place_name": "Sukhsagarnagar"
    },
    {
      "id": "266",
      "place_name": "Kalyaninagar"
    },
    {
      "id": "267",
      "place_name": "Agalambegaon"
    },
    {
      "id": "268",
      "place_name": "Ghotawadegaon"
    },
    {
      "id": "269",
      "place_name": "Shasakiya Vishramgruha Paudgaon"
    },
    {
      "id": "270",
      "place_name": "Sheregaon"
    },
    {
      "id": "271",
      "place_name": "Mugawade"
    },
    {
      "id": "272",
      "place_name": "Aditya Garden City"
    },
    {
      "id": "273",
      "place_name": "Popularnagar"
    },
    {
      "id": "274",
      "place_name": "Cipla Center"
    },
    {
      "id": "275",
      "place_name": "Kondhur Phata"
    },
    {
      "id": "276",
      "place_name": "Sangrun"
    },
    {
      "id": "277",
      "place_name": "Khothrud Stand"
    },
    {
      "id": "278",
      "place_name": "Mohakarwadi"
    },
    {
      "id": "279",
      "place_name": "Sutarwadi"
    },
    {
      "id": "280",
      "place_name": "Deccan Gymkhana (Vai Bhagvatinagar)"
    },
    {
      "id": "281",
      "place_name": "Sutarwadi (Vai Bhagvatinagar)"
    },
    {
      "id": "282",
      "place_name": "Susgaon"
    },
    {
      "id": "283",
      "place_name": "HMR Company"
    },
    {
      "id": "284",
      "place_name": "Deccan Gymkhana (Vai Sai Chowk)"
    },
    {
      "id": "285",
      "place_name": "Sutarwadi (Vai Sai Chowk)"
    },
    {
      "id": "286",
      "place_name": "Balewadi Mhalunge Phata"
    },
    {
      "id": "287",
      "place_name": "Medi Point"
    },
    {
      "id": "288",
      "place_name": "Mhatobachi Alandi"
    },
    {
      "id": "289",
      "place_name": "Ishanyanagari"
    },
    {
      "id": "290",
      "place_name": "Kumbre park"
    },
    {
      "id": "291",
      "place_name": "Gharkul Vasahat Warje"
    },
    {
      "id": "292",
      "place_name": "Uruli Railway Station"
    },
    {
      "id": "293",
      "place_name": "Police Ground"
    },
    {
      "id": "294",
      "place_name": "MIT College"
    },
    {
      "id": "295",
      "place_name": "Sainagar Mamurdi"
    },
    {
      "id": "296",
      "place_name": "Dhayari Gaon"
    },
    {
      "id": "297",
      "place_name": "D.Y. Patil Vidhypith Lohgaon"
    }
  ],
  "connections": [
    {
      "source": "1",
      "destination": "2",
      "weight": "26.4"
    },
    {
      "source": "2",
      "destination": "1",
      "weight": "26.4"
    },
    {
      "source": "3",
      "destination": "4",
      "weight": "16.2"
    },
    {
      "source": "4",
      "destination": "3",
      "weight": "16.2"
    },
    {
      "source": "5",
      "destination": "4",
      "weight": "23.6"
    },
    {
      "source": "4",
      "destination": "5",
      "weight": "23.6"
    },
    {
      "source": "1",
      "destination": "6",
      "weight": "36.6"
    },
    {
      "source": "7",
      "destination": "8",
      "weight": "36.6"
    },
    {
      "source": "9",
      "destination": "7",
      "weight": "6.1"
    },
    {
      "source": "7",
      "destination": "9",
      "weight": "6.1"
    },
    {
      "source": "1",
      "destination": "9",
      "weight": "30.5"
    },
    {
      "source": "9",
      "destination": "1",
      "weight": "30.5"
    },
    {
      "source": "4",
      "destination": "7",
      "weight": "14.3"
    },
    {
      "source": "7",
      "destination": "4",
      "weight": "14.3"
    },
    {
      "source": "10",
      "destination": "11",
      "weight": "15.4"
    },
    {
      "source": "11",
      "destination": "10",
      "weight": "15.4"
    },
    {
      "source": "12",
      "destination": "11",
      "weight": "16.8"
    },
    {
      "source": "11",
      "destination": "12",
      "weight": "16.8"
    },
    {
      "source": "13",
      "destination": "13",
      "weight": "21.3"
    },
    {
      "source": "14",
      "destination": "11",
      "weight": "14.4"
    },
    {
      "source": "11",
      "destination": "14",
      "weight": "14.4"
    },
    {
      "source": "15",
      "destination": "16",
      "weight": "12.3"
    },
    {
      "source": "16",
      "destination": "15",
      "weight": "12.3"
    },
    {
      "source": "2",
      "destination": "2",
      "weight": "21"
    },
    {
      "source": "17",
      "destination": "9",
      "weight": "15"
    },
    {
      "source": "9",
      "destination": "17",
      "weight": "15"
    },
    {
      "source": "2",
      "destination": "2",
      "weight": "21"
    },
    {
      "source": "2",
      "destination": "18",
      "weight": "17.3"
    },
    {
      "source": "18",
      "destination": "2",
      "weight": "17.3"
    },
    {
      "source": "19",
      "destination": "4",
      "weight": "8"
    },
    {
      "source": "4",
      "destination": "19",
      "weight": "8"
    },
    {
      "source": "14",
      "destination": "20",
      "weight": "13.3"
    },
    {
      "source": "20",
      "destination": "14",
      "weight": "13.3"
    },
    {
      "source": "14",
      "destination": "2",
      "weight": "12.6"
    },
    {
      "source": "2",
      "destination": "14",
      "weight": "12.6"
    },
    {
      "source": "21",
      "destination": "20",
      "weight": "10.9"
    },
    {
      "source": "20",
      "destination": "21",
      "weight": "10.9"
    },
    {
      "source": "22",
      "destination": "2",
      "weight": "12.5"
    },
    {
      "source": "2",
      "destination": "22",
      "weight": "12.5"
    },
    {
      "source": "1",
      "destination": "15",
      "weight": "29"
    },
    {
      "source": "15",
      "destination": "1",
      "weight": "29"
    },
    {
      "source": "23",
      "destination": "2",
      "weight": "10.8"
    },
    {
      "source": "2",
      "destination": "23",
      "weight": "10.8"
    },
    {
      "source": "10",
      "destination": "9",
      "weight": "12.6"
    },
    {
      "source": "9",
      "destination": "10",
      "weight": "12.6"
    },
    {
      "source": "24",
      "destination": "9",
      "weight": "11.7"
    },
    {
      "source": "9",
      "destination": "24",
      "weight": "11.7"
    },
    {
      "source": "25",
      "destination": "9",
      "weight": "13.5"
    },
    {
      "source": "9",
      "destination": "25",
      "weight": "13.5"
    },
    {
      "source": "26",
      "destination": "9",
      "weight": "12.2"
    },
    {
      "source": "9",
      "destination": "26",
      "weight": "12.2"
    },
    {
      "source": "9",
      "destination": "27",
      "weight": "5"
    },
    {
      "source": "28",
      "destination": "27",
      "weight": "7"
    },
    {
      "source": "29",
      "destination": "26",
      "weight": "13.6"
    },
    {
      "source": "9",
      "destination": "30",
      "weight": "3.1"
    },
    {
      "source": "30",
      "destination": "9",
      "weight": "3.1"
    },
    {
      "source": "31",
      "destination": "9",
      "weight": "9.4"
    },
    {
      "source": "9",
      "destination": "31",
      "weight": "9.4"
    },
    {
      "source": "32",
      "destination": "9",
      "weight": "6"
    },
    {
      "source": "9",
      "destination": "32",
      "weight": "6"
    },
    {
      "source": "33",
      "destination": "9",
      "weight": "7"
    },
    {
      "source": "9",
      "destination": "33",
      "weight": "7"
    },
    {
      "source": "34",
      "destination": "9",
      "weight": "11.2"
    },
    {
      "source": "9",
      "destination": "34",
      "weight": "11.2"
    },
    {
      "source": "31",
      "destination": "9",
      "weight": "9.4"
    },
    {
      "source": "9",
      "destination": "31",
      "weight": "9.4"
    },
    {
      "source": "35",
      "destination": "36",
      "weight": "11"
    },
    {
      "source": "36",
      "destination": "35",
      "weight": "11"
    },
    {
      "source": "35",
      "destination": "2",
      "weight": "23.1"
    },
    {
      "source": "2",
      "destination": "35",
      "weight": "23.1"
    },
    {
      "source": "14",
      "destination": "30",
      "weight": "18.3"
    },
    {
      "source": "30",
      "destination": "14",
      "weight": "18.3"
    },
    {
      "source": "37",
      "destination": "7",
      "weight": "21.6"
    },
    {
      "source": "7",
      "destination": "37",
      "weight": "21.6"
    },
    {
      "source": "38",
      "destination": "39",
      "weight": "23.5"
    },
    {
      "source": "39",
      "destination": "38",
      "weight": "23.5"
    },
    {
      "source": "40",
      "destination": "2",
      "weight": "40.6"
    },
    {
      "source": "2",
      "destination": "40",
      "weight": "40.6"
    },
    {
      "source": "41",
      "destination": "2",
      "weight": "17.1"
    },
    {
      "source": "2",
      "destination": "41",
      "weight": "17.1"
    },
    {
      "source": "42",
      "destination": "2",
      "weight": "15.9"
    },
    {
      "source": "43",
      "destination": "42",
      "weight": "6"
    },
    {
      "source": "42",
      "destination": "43",
      "weight": "6"
    },
    {
      "source": "2",
      "destination": "43",
      "weight": "18.7"
    },
    {
      "source": "43",
      "destination": "2",
      "weight": "18.7"
    },
    {
      "source": "2",
      "destination": "43",
      "weight": "18.7"
    },
    {
      "source": "44",
      "destination": "2",
      "weight": "20.1"
    },
    {
      "source": "2",
      "destination": "44",
      "weight": "20.1"
    },
    {
      "source": "45",
      "destination": "46",
      "weight": "12.7"
    },
    {
      "source": "46",
      "destination": "45",
      "weight": "12.7"
    },
    {
      "source": "47",
      "destination": "23",
      "weight": "10.1"
    },
    {
      "source": "47",
      "destination": "48",
      "weight": "20.2"
    },
    {
      "source": "23",
      "destination": "48",
      "weight": "10.2"
    },
    {
      "source": "48",
      "destination": "36",
      "weight": "16.2"
    },
    {
      "source": "23",
      "destination": "36",
      "weight": "6"
    },
    {
      "source": "36",
      "destination": "48",
      "weight": "16.2"
    },
    {
      "source": "46",
      "destination": "2",
      "weight": "19.1"
    },
    {
      "source": "2",
      "destination": "46",
      "weight": "19.1"
    },
    {
      "source": "12",
      "destination": "15",
      "weight": "18.8"
    },
    {
      "source": "15",
      "destination": "12",
      "weight": "18.8"
    },
    {
      "source": "44",
      "destination": "49",
      "weight": "30.05"
    },
    {
      "source": "49",
      "destination": "44",
      "weight": "30.05"
    },
    {
      "source": "50",
      "destination": "7",
      "weight": "5.7"
    },
    {
      "source": "7",
      "destination": "50",
      "weight": "5.7"
    },
    {
      "source": "51",
      "destination": "50",
      "weight": "16.1"
    },
    {
      "source": "50",
      "destination": "51",
      "weight": "16.1"
    },
    {
      "source": "52",
      "destination": "53",
      "weight": "14"
    },
    {
      "source": "2",
      "destination": "54",
      "weight": "14"
    },
    {
      "source": "55",
      "destination": "2",
      "weight": "11.1"
    },
    {
      "source": "2",
      "destination": "55",
      "weight": "11.1"
    },
    {
      "source": "56",
      "destination": "57",
      "weight": "14.8"
    },
    {
      "source": "2",
      "destination": "58",
      "weight": "14.8"
    },
    {
      "source": "59",
      "destination": "2",
      "weight": "12.8"
    },
    {
      "source": "2",
      "destination": "59",
      "weight": "12.8"
    },
    {
      "source": "60",
      "destination": "2",
      "weight": "14"
    },
    {
      "source": "2",
      "destination": "61",
      "weight": "14"
    },
    {
      "source": "62",
      "destination": "15",
      "weight": "8.7"
    },
    {
      "source": "15",
      "destination": "62",
      "weight": "8.7"
    },
    {
      "source": "63",
      "destination": "64",
      "weight": "10.8"
    },
    {
      "source": "64",
      "destination": "63",
      "weight": "10.8"
    },
    {
      "source": "63",
      "destination": "15",
      "weight": "25.6"
    },
    {
      "source": "15",
      "destination": "63",
      "weight": "25.6"
    },
    {
      "source": "65",
      "destination": "64",
      "weight": "12.7"
    },
    {
      "source": "64",
      "destination": "65",
      "weight": "12.7"
    },
    {
      "source": "65",
      "destination": "15",
      "weight": "27.5"
    },
    {
      "source": "15",
      "destination": "65",
      "weight": "27.5"
    },
    {
      "source": "44",
      "destination": "18",
      "weight": "30.7"
    },
    {
      "source": "18",
      "destination": "44",
      "weight": "30.7"
    },
    {
      "source": "44",
      "destination": "66",
      "weight": "31.6"
    },
    {
      "source": "66",
      "destination": "44",
      "weight": "31.6"
    },
    {
      "source": "51",
      "destination": "67",
      "weight": "11.9"
    },
    {
      "source": "68",
      "destination": "51",
      "weight": "11.9"
    },
    {
      "source": "69",
      "destination": "70",
      "weight": "14.5"
    },
    {
      "source": "70",
      "destination": "69",
      "weight": "14.5"
    },
    {
      "source": "70",
      "destination": "69",
      "weight": "14.5"
    },
    {
      "source": "51",
      "destination": "49",
      "weight": "10"
    },
    {
      "source": "51",
      "destination": "71",
      "weight": "9.6"
    },
    {
      "source": "71",
      "destination": "51",
      "weight": "9.6"
    },
    {
      "source": "49",
      "destination": "51",
      "weight": "10"
    },
    {
      "source": "15",
      "destination": "49",
      "weight": "11.3"
    },
    {
      "source": "49",
      "destination": "15",
      "weight": "11.3"
    },
    {
      "source": "30",
      "destination": "72",
      "weight": "6"
    },
    {
      "source": "72",
      "destination": "30",
      "weight": "6"
    },
    {
      "source": "15",
      "destination": "72",
      "weight": "11.9"
    },
    {
      "source": "72",
      "destination": "15",
      "weight": "11.9"
    },
    {
      "source": "73",
      "destination": "15",
      "weight": "31.8"
    },
    {
      "source": "15",
      "destination": "73",
      "weight": "31.8"
    },
    {
      "source": "15",
      "destination": "74",
      "weight": "11.3"
    },
    {
      "source": "13",
      "destination": "75",
      "weight": "11.3"
    },
    {
      "source": "15",
      "destination": "76",
      "weight": "11.3"
    },
    {
      "source": "13",
      "destination": "77",
      "weight": "11.3"
    },
    {
      "source": "15",
      "destination": "78",
      "weight": "13.9"
    },
    {
      "source": "78",
      "destination": "15",
      "weight": "13.9"
    },
    {
      "source": "60",
      "destination": "79",
      "weight": "22.7"
    },
    {
      "source": "79",
      "destination": "60",
      "weight": "22.7"
    },
    {
      "source": "15",
      "destination": "80",
      "weight": "9"
    },
    {
      "source": "15",
      "destination": "81",
      "weight": "12.5"
    },
    {
      "source": "81",
      "destination": "15",
      "weight": "12.5"
    },
    {
      "source": "15",
      "destination": "82",
      "weight": "9"
    },
    {
      "source": "82",
      "destination": "15",
      "weight": "9"
    },
    {
      "source": "80",
      "destination": "15",
      "weight": "9"
    },
    {
      "source": "83",
      "destination": "15",
      "weight": "25.75"
    },
    {
      "source": "15",
      "destination": "83",
      "weight": "25.75"
    },
    {
      "source": "84",
      "destination": "15",
      "weight": "13"
    },
    {
      "source": "15",
      "destination": "84",
      "weight": "13"
    },
    {
      "source": "85",
      "destination": "15",
      "weight": "23.15"
    },
    {
      "source": "15",
      "destination": "86",
      "weight": "23.15"
    },
    {
      "source": "87",
      "destination": "15",
      "weight": "8.45"
    },
    {
      "source": "15",
      "destination": "87",
      "weight": "8.45"
    },
    {
      "source": "88",
      "destination": "64",
      "weight": "23.2"
    },
    {
      "source": "64",
      "destination": "88",
      "weight": "23.2"
    },
    {
      "source": "88",
      "destination": "15",
      "weight": "38"
    },
    {
      "source": "15",
      "destination": "88",
      "weight": "38"
    },
    {
      "source": "39",
      "destination": "18",
      "weight": "33.7"
    },
    {
      "source": "18",
      "destination": "39",
      "weight": "33.7"
    },
    {
      "source": "14",
      "destination": "66",
      "weight": "24.8"
    },
    {
      "source": "66",
      "destination": "14",
      "weight": "24.8"
    },
    {
      "source": "44",
      "destination": "66",
      "weight": "42.9"
    },
    {
      "source": "66",
      "destination": "44",
      "weight": "42.9"
    },
    {
      "source": "89",
      "destination": "66",
      "weight": "37.6"
    },
    {
      "source": "66",
      "destination": "89",
      "weight": "37.6"
    },
    {
      "source": "64",
      "destination": "26",
      "weight": "31.6"
    },
    {
      "source": "26",
      "destination": "64",
      "weight": "31.6"
    },
    {
      "source": "35",
      "destination": "15",
      "weight": "22"
    },
    {
      "source": "15",
      "destination": "35",
      "weight": "22"
    },
    {
      "source": "90",
      "destination": "2",
      "weight": "12.3"
    },
    {
      "source": "2",
      "destination": "90",
      "weight": "12.3"
    },
    {
      "source": "2",
      "destination": "91",
      "weight": "11.6"
    },
    {
      "source": "36",
      "destination": "15",
      "weight": "8.5"
    },
    {
      "source": "15",
      "destination": "36",
      "weight": "8.5"
    },
    {
      "source": "5",
      "destination": "92",
      "weight": "15.7"
    },
    {
      "source": "15",
      "destination": "93",
      "weight": "15.7"
    },
    {
      "source": "94",
      "destination": "2",
      "weight": "15.5"
    },
    {
      "source": "2",
      "destination": "94",
      "weight": "15.5"
    },
    {
      "source": "5",
      "destination": "2",
      "weight": "13.5"
    },
    {
      "source": "2",
      "destination": "5",
      "weight": "13.5"
    },
    {
      "source": "95",
      "destination": "2",
      "weight": "40.5"
    },
    {
      "source": "96",
      "destination": "2",
      "weight": "29"
    },
    {
      "source": "2",
      "destination": "96",
      "weight": "29"
    },
    {
      "source": "97",
      "destination": "2",
      "weight": "40.8"
    },
    {
      "source": "2",
      "destination": "97",
      "weight": "40.8"
    },
    {
      "source": "2",
      "destination": "95",
      "weight": "40.5"
    },
    {
      "source": "98",
      "destination": "2",
      "weight": "10.9"
    },
    {
      "source": "2",
      "destination": "98",
      "weight": "10.9"
    },
    {
      "source": "99",
      "destination": "100",
      "weight": "23"
    },
    {
      "source": "100",
      "destination": "99",
      "weight": "23"
    },
    {
      "source": "101",
      "destination": "15",
      "weight": "43"
    },
    {
      "source": "15",
      "destination": "101",
      "weight": "43"
    },
    {
      "source": "102",
      "destination": "15",
      "weight": "11"
    },
    {
      "source": "15",
      "destination": "102",
      "weight": "11"
    },
    {
      "source": "99",
      "destination": "9",
      "weight": "15.5"
    },
    {
      "source": "9",
      "destination": "99",
      "weight": "15"
    },
    {
      "source": "52",
      "destination": "2",
      "weight": "11.1"
    },
    {
      "source": "2",
      "destination": "52",
      "weight": "11.1"
    },
    {
      "source": "99",
      "destination": "15",
      "weight": "9.5"
    },
    {
      "source": "15",
      "destination": "99",
      "weight": "9.5"
    },
    {
      "source": "64",
      "destination": "103",
      "weight": "14.2"
    },
    {
      "source": "103",
      "destination": "64",
      "weight": "14.2"
    },
    {
      "source": "17",
      "destination": "2",
      "weight": "11.6"
    },
    {
      "source": "2",
      "destination": "17",
      "weight": "11.6"
    },
    {
      "source": "17",
      "destination": "104",
      "weight": "12"
    },
    {
      "source": "2",
      "destination": "105",
      "weight": "12"
    },
    {
      "source": "3",
      "destination": "15",
      "weight": "11.3"
    },
    {
      "source": "15",
      "destination": "3",
      "weight": "11.3"
    },
    {
      "source": "106",
      "destination": "15",
      "weight": "12"
    },
    {
      "source": "15",
      "destination": "106",
      "weight": "12"
    },
    {
      "source": "3",
      "destination": "15",
      "weight": "11.3"
    },
    {
      "source": "15",
      "destination": "3",
      "weight": "11.3"
    },
    {
      "source": "85",
      "destination": "15",
      "weight": "21"
    },
    {
      "source": "15",
      "destination": "86",
      "weight": "21"
    },
    {
      "source": "83",
      "destination": "15",
      "weight": "23.4"
    },
    {
      "source": "15",
      "destination": "83",
      "weight": "23.4"
    },
    {
      "source": "107",
      "destination": "15",
      "weight": "18.8"
    },
    {
      "source": "15",
      "destination": "107",
      "weight": "18.8"
    },
    {
      "source": "103",
      "destination": "2",
      "weight": "16"
    },
    {
      "source": "2",
      "destination": "103",
      "weight": "16"
    },
    {
      "source": "108",
      "destination": "109",
      "weight": "12.1"
    },
    {
      "source": "110",
      "destination": "111",
      "weight": "12.1"
    },
    {
      "source": "112",
      "destination": "9",
      "weight": "12.1"
    },
    {
      "source": "9",
      "destination": "112",
      "weight": "12.1"
    },
    {
      "source": "113",
      "destination": "36",
      "weight": "18.4"
    },
    {
      "source": "36",
      "destination": "113",
      "weight": "18.4"
    },
    {
      "source": "114",
      "destination": "15",
      "weight": "9.7"
    },
    {
      "source": "15",
      "destination": "114",
      "weight": "9.7"
    },
    {
      "source": "115",
      "destination": "15",
      "weight": "9.2"
    },
    {
      "source": "113",
      "destination": "15",
      "weight": "9.5"
    },
    {
      "source": "15",
      "destination": "113",
      "weight": "9.5"
    },
    {
      "source": "108",
      "destination": "15",
      "weight": "10.9"
    },
    {
      "source": "15",
      "destination": "108",
      "weight": "10.9"
    },
    {
      "source": "112",
      "destination": "15",
      "weight": "13.3"
    },
    {
      "source": "15",
      "destination": "112",
      "weight": "13.3"
    },
    {
      "source": "15",
      "destination": "115",
      "weight": "9.2"
    },
    {
      "source": "116",
      "destination": "103",
      "weight": "9.6"
    },
    {
      "source": "103",
      "destination": "116",
      "weight": "9.6"
    },
    {
      "source": "116",
      "destination": "117",
      "weight": "14.2"
    },
    {
      "source": "9",
      "destination": "116",
      "weight": "14.2"
    },
    {
      "source": "118",
      "destination": "119",
      "weight": "11"
    },
    {
      "source": "119",
      "destination": "118",
      "weight": "11"
    },
    {
      "source": "28",
      "destination": "9",
      "weight": "2.8"
    },
    {
      "source": "9",
      "destination": "28",
      "weight": "2.8"
    },
    {
      "source": "118",
      "destination": "29",
      "weight": "13.2"
    },
    {
      "source": "29",
      "destination": "118",
      "weight": "13.2"
    },
    {
      "source": "18",
      "destination": "120",
      "weight": "15.5"
    },
    {
      "source": "120",
      "destination": "18",
      "weight": "15.5"
    },
    {
      "source": "121",
      "destination": "120",
      "weight": "12.3"
    },
    {
      "source": "120",
      "destination": "121",
      "weight": "12.3"
    },
    {
      "source": "114",
      "destination": "120",
      "weight": "11.5"
    },
    {
      "source": "120",
      "destination": "114",
      "weight": "11.5"
    },
    {
      "source": "3",
      "destination": "120",
      "weight": "13.8"
    },
    {
      "source": "120",
      "destination": "3",
      "weight": "13.8"
    },
    {
      "source": "122",
      "destination": "120",
      "weight": "11.5"
    },
    {
      "source": "120",
      "destination": "122",
      "weight": "11.5"
    },
    {
      "source": "123",
      "destination": "124",
      "weight": "27.9"
    },
    {
      "source": "124",
      "destination": "123",
      "weight": "27.9"
    },
    {
      "source": "125",
      "destination": "103",
      "weight": "17.4"
    },
    {
      "source": "103",
      "destination": "125",
      "weight": "14.7"
    },
    {
      "source": "18",
      "destination": "9",
      "weight": "12.1"
    },
    {
      "source": "103",
      "destination": "9",
      "weight": "9.5"
    },
    {
      "source": "9",
      "destination": "103",
      "weight": "9.5"
    },
    {
      "source": "9",
      "destination": "18",
      "weight": "12.1"
    },
    {
      "source": "126",
      "destination": "9",
      "weight": "15.3"
    },
    {
      "source": "9",
      "destination": "126",
      "weight": "15.3"
    },
    {
      "source": "126",
      "destination": "127",
      "weight": "19.6"
    },
    {
      "source": "127",
      "destination": "126",
      "weight": "16.9"
    },
    {
      "source": "128",
      "destination": "103",
      "weight": "8.3"
    },
    {
      "source": "103",
      "destination": "128",
      "weight": "8.3"
    },
    {
      "source": "9",
      "destination": "129",
      "weight": "13.3"
    },
    {
      "source": "129",
      "destination": "9",
      "weight": "13.3"
    },
    {
      "source": "103",
      "destination": "130",
      "weight": "4.7"
    },
    {
      "source": "130",
      "destination": "103",
      "weight": "4.7"
    },
    {
      "source": "15",
      "destination": "129",
      "weight": "14.2"
    },
    {
      "source": "129",
      "destination": "15",
      "weight": "14.2"
    },
    {
      "source": "15",
      "destination": "18",
      "weight": "15"
    },
    {
      "source": "18",
      "destination": "15",
      "weight": "15"
    },
    {
      "source": "7",
      "destination": "103",
      "weight": "18"
    },
    {
      "source": "103",
      "destination": "7",
      "weight": "18"
    },
    {
      "source": "131",
      "destination": "103",
      "weight": "6.7"
    },
    {
      "source": "103",
      "destination": "131",
      "weight": "6.7"
    },
    {
      "source": "132",
      "destination": "9",
      "weight": "8.5"
    },
    {
      "source": "9",
      "destination": "132",
      "weight": "8.5"
    },
    {
      "source": "133",
      "destination": "103",
      "weight": "8.7"
    },
    {
      "source": "103",
      "destination": "133",
      "weight": "8.7"
    },
    {
      "source": "126",
      "destination": "103",
      "weight": "6"
    },
    {
      "source": "103",
      "destination": "126",
      "weight": "6"
    },
    {
      "source": "134",
      "destination": "15",
      "weight": "14.5"
    },
    {
      "source": "15",
      "destination": "134",
      "weight": "14.5"
    },
    {
      "source": "135",
      "destination": "103",
      "weight": "6"
    },
    {
      "source": "103",
      "destination": "135",
      "weight": "6"
    },
    {
      "source": "136",
      "destination": "103",
      "weight": "8"
    },
    {
      "source": "103",
      "destination": "136",
      "weight": "8"
    },
    {
      "source": "137",
      "destination": "103",
      "weight": "22.8"
    },
    {
      "source": "103",
      "destination": "137",
      "weight": "22.8"
    },
    {
      "source": "138",
      "destination": "103",
      "weight": "8.5"
    },
    {
      "source": "103",
      "destination": "138",
      "weight": "8.5"
    },
    {
      "source": "112",
      "destination": "139",
      "weight": "13.1"
    },
    {
      "source": "9",
      "destination": "140",
      "weight": "13.1"
    },
    {
      "source": "103",
      "destination": "15",
      "weight": "12.4"
    },
    {
      "source": "15",
      "destination": "103",
      "weight": "12.4"
    },
    {
      "source": "4",
      "destination": "103",
      "weight": "17.6"
    },
    {
      "source": "103",
      "destination": "4",
      "weight": "17.6"
    },
    {
      "source": "141",
      "destination": "103",
      "weight": "11"
    },
    {
      "source": "103",
      "destination": "141",
      "weight": "11"
    },
    {
      "source": "51",
      "destination": "30",
      "weight": "7.6"
    },
    {
      "source": "30",
      "destination": "51",
      "weight": "7.6"
    },
    {
      "source": "106",
      "destination": "30",
      "weight": "9"
    },
    {
      "source": "30",
      "destination": "106",
      "weight": "9"
    },
    {
      "source": "51",
      "destination": "106",
      "weight": "16.6"
    },
    {
      "source": "106",
      "destination": "51",
      "weight": "16.6"
    },
    {
      "source": "103",
      "destination": "142",
      "weight": "3"
    },
    {
      "source": "142",
      "destination": "103",
      "weight": "3"
    },
    {
      "source": "9",
      "destination": "142",
      "weight": "12.4"
    },
    {
      "source": "142",
      "destination": "9",
      "weight": "12.4"
    },
    {
      "source": "35",
      "destination": "18",
      "weight": "34.3"
    },
    {
      "source": "18",
      "destination": "35",
      "weight": "34.3"
    },
    {
      "source": "143",
      "destination": "100",
      "weight": "13.1"
    },
    {
      "source": "143",
      "destination": "9",
      "weight": "13.1"
    },
    {
      "source": "9",
      "destination": "143",
      "weight": "3"
    },
    {
      "source": "100",
      "destination": "103",
      "weight": "19.2"
    },
    {
      "source": "103",
      "destination": "144",
      "weight": "19.2"
    },
    {
      "source": "15",
      "destination": "18",
      "weight": "12.6"
    },
    {
      "source": "15",
      "destination": "103",
      "weight": "10"
    },
    {
      "source": "103",
      "destination": "15",
      "weight": "10"
    },
    {
      "source": "15",
      "destination": "66",
      "weight": "13.5"
    },
    {
      "source": "66",
      "destination": "15",
      "weight": "13.5"
    },
    {
      "source": "18",
      "destination": "15",
      "weight": "12.6"
    },
    {
      "source": "43",
      "destination": "18",
      "weight": "31.9"
    },
    {
      "source": "18",
      "destination": "43",
      "weight": "31.9"
    },
    {
      "source": "21",
      "destination": "103",
      "weight": "26.5"
    },
    {
      "source": "103",
      "destination": "21",
      "weight": "26.5"
    },
    {
      "source": "145",
      "destination": "103",
      "weight": "26.8"
    },
    {
      "source": "103",
      "destination": "145",
      "weight": "26.8"
    },
    {
      "source": "146",
      "destination": "103",
      "weight": "23"
    },
    {
      "source": "103",
      "destination": "146",
      "weight": "23"
    },
    {
      "source": "146",
      "destination": "9",
      "weight": "32.7"
    },
    {
      "source": "9",
      "destination": "146",
      "weight": "32.7"
    },
    {
      "source": "44",
      "destination": "103",
      "weight": "28.2"
    },
    {
      "source": "103",
      "destination": "44",
      "weight": "28.2"
    },
    {
      "source": "1",
      "destination": "103",
      "weight": "36.3"
    },
    {
      "source": "103",
      "destination": "1",
      "weight": "36.3"
    },
    {
      "source": "147",
      "destination": "148",
      "weight": "3.4"
    },
    {
      "source": "148",
      "destination": "147",
      "weight": "3.4"
    },
    {
      "source": "103",
      "destination": "9",
      "weight": "9.5"
    },
    {
      "source": "9",
      "destination": "103",
      "weight": "9.5"
    },
    {
      "source": "15",
      "destination": "147",
      "weight": "9.5"
    },
    {
      "source": "147",
      "destination": "15",
      "weight": "9.5"
    },
    {
      "source": "99",
      "destination": "7",
      "weight": "21.9"
    },
    {
      "source": "7",
      "destination": "99",
      "weight": "21.9"
    },
    {
      "source": "149",
      "destination": "9",
      "weight": "8.6"
    },
    {
      "source": "9",
      "destination": "149",
      "weight": "8.6"
    },
    {
      "source": "9",
      "destination": "149",
      "weight": "7.5"
    },
    {
      "source": "149",
      "destination": "9",
      "weight": "7.5"
    },
    {
      "source": "19",
      "destination": "7",
      "weight": "7.7"
    },
    {
      "source": "7",
      "destination": "19",
      "weight": "7.7"
    },
    {
      "source": "69",
      "destination": "150",
      "weight": "16.5"
    },
    {
      "source": "150",
      "destination": "69",
      "weight": "16.5"
    },
    {
      "source": "19",
      "destination": "150",
      "weight": "7.7"
    },
    {
      "source": "150",
      "destination": "19",
      "weight": "7.7"
    },
    {
      "source": "150",
      "destination": "150",
      "weight": "15.5"
    },
    {
      "source": "151",
      "destination": "7",
      "weight": "3.8"
    },
    {
      "source": "7",
      "destination": "151",
      "weight": "3.8"
    },
    {
      "source": "151",
      "destination": "9",
      "weight": "9.9"
    },
    {
      "source": "9",
      "destination": "151",
      "weight": "9.9"
    },
    {
      "source": "151",
      "destination": "152",
      "weight": "7"
    },
    {
      "source": "152",
      "destination": "151",
      "weight": "7"
    },
    {
      "source": "12",
      "destination": "7",
      "weight": "23"
    },
    {
      "source": "7",
      "destination": "12",
      "weight": "23"
    },
    {
      "source": "153",
      "destination": "9",
      "weight": "9.5"
    },
    {
      "source": "9",
      "destination": "153",
      "weight": "9.5"
    },
    {
      "source": "154",
      "destination": "9",
      "weight": "12.2"
    },
    {
      "source": "9",
      "destination": "154",
      "weight": "12.2"
    },
    {
      "source": "21",
      "destination": "9",
      "weight": "14.85"
    },
    {
      "source": "48",
      "destination": "9",
      "weight": "15.1"
    },
    {
      "source": "9",
      "destination": "48",
      "weight": "15.1"
    },
    {
      "source": "9",
      "destination": "21",
      "weight": "14.85"
    },
    {
      "source": "26",
      "destination": "15",
      "weight": "15.9"
    },
    {
      "source": "15",
      "destination": "26",
      "weight": "15.9"
    },
    {
      "source": "51",
      "destination": "30",
      "weight": "7.6"
    },
    {
      "source": "30",
      "destination": "51",
      "weight": "7.6"
    },
    {
      "source": "155",
      "destination": "30",
      "weight": "33.5"
    },
    {
      "source": "30",
      "destination": "155",
      "weight": "33.5"
    },
    {
      "source": "72",
      "destination": "9",
      "weight": "6"
    },
    {
      "source": "9",
      "destination": "72",
      "weight": "6"
    },
    {
      "source": "51",
      "destination": "72",
      "weight": "10"
    },
    {
      "source": "72",
      "destination": "51",
      "weight": "10"
    },
    {
      "source": "15",
      "destination": "150",
      "weight": "10.9"
    },
    {
      "source": "150",
      "destination": "15",
      "weight": "10.9"
    },
    {
      "source": "156",
      "destination": "30",
      "weight": "35.6"
    },
    {
      "source": "30",
      "destination": "156",
      "weight": "35.6"
    },
    {
      "source": "102",
      "destination": "2",
      "weight": "14"
    },
    {
      "source": "2",
      "destination": "102",
      "weight": "14"
    },
    {
      "source": "102",
      "destination": "7",
      "weight": "22.4"
    },
    {
      "source": "7",
      "destination": "102",
      "weight": "22.4"
    },
    {
      "source": "157",
      "destination": "2",
      "weight": "13.5"
    },
    {
      "source": "2",
      "destination": "157",
      "weight": "13.5"
    },
    {
      "source": "102",
      "destination": "100",
      "weight": "24.2"
    },
    {
      "source": "100",
      "destination": "102",
      "weight": "24.2"
    },
    {
      "source": "15",
      "destination": "49",
      "weight": "11.4"
    },
    {
      "source": "49",
      "destination": "15",
      "weight": "11.4"
    },
    {
      "source": "158",
      "destination": "7",
      "weight": "18"
    },
    {
      "source": "7",
      "destination": "158",
      "weight": "18"
    },
    {
      "source": "5",
      "destination": "7",
      "weight": "21.1"
    },
    {
      "source": "7",
      "destination": "5",
      "weight": "21.1"
    },
    {
      "source": "158",
      "destination": "7",
      "weight": "18"
    },
    {
      "source": "15",
      "destination": "7",
      "weight": "10.8"
    },
    {
      "source": "7",
      "destination": "15",
      "weight": "10.8"
    },
    {
      "source": "7",
      "destination": "158",
      "weight": "18"
    },
    {
      "source": "159",
      "destination": "36",
      "weight": "12.4"
    },
    {
      "source": "36",
      "destination": "159",
      "weight": "12.4"
    },
    {
      "source": "159",
      "destination": "2",
      "weight": "21.6"
    },
    {
      "source": "2",
      "destination": "159",
      "weight": "21.6"
    },
    {
      "source": "160",
      "destination": "2",
      "weight": "11"
    },
    {
      "source": "2",
      "destination": "160",
      "weight": "11"
    },
    {
      "source": "12",
      "destination": "2",
      "weight": "13.5"
    },
    {
      "source": "161",
      "destination": "2",
      "weight": "8.1"
    },
    {
      "source": "2",
      "destination": "161",
      "weight": "8.1"
    },
    {
      "source": "2",
      "destination": "12",
      "weight": "13.5"
    },
    {
      "source": "35",
      "destination": "64",
      "weight": "24"
    },
    {
      "source": "64",
      "destination": "35",
      "weight": "24"
    },
    {
      "source": "162",
      "destination": "163",
      "weight": "11.8"
    },
    {
      "source": "163",
      "destination": "162",
      "weight": "11.8"
    },
    {
      "source": "162",
      "destination": "2",
      "weight": "31.3"
    },
    {
      "source": "2",
      "destination": "162",
      "weight": "31.3"
    },
    {
      "source": "164",
      "destination": "2",
      "weight": "38"
    },
    {
      "source": "2",
      "destination": "164",
      "weight": "38"
    },
    {
      "source": "51",
      "destination": "165",
      "weight": "10.2"
    },
    {
      "source": "165",
      "destination": "51",
      "weight": "10.2"
    },
    {
      "source": "43",
      "destination": "100",
      "weight": "24.9"
    },
    {
      "source": "100",
      "destination": "43",
      "weight": "24.9"
    },
    {
      "source": "80",
      "destination": "166",
      "weight": "10"
    },
    {
      "source": "166",
      "destination": "80",
      "weight": "10"
    },
    {
      "source": "23",
      "destination": "166",
      "weight": "24"
    },
    {
      "source": "166",
      "destination": "23",
      "weight": "24"
    },
    {
      "source": "167",
      "destination": "168",
      "weight": "28.6"
    },
    {
      "source": "11",
      "destination": "167",
      "weight": "6"
    },
    {
      "source": "168",
      "destination": "11",
      "weight": "34.6"
    },
    {
      "source": "11",
      "destination": "168",
      "weight": "34.6"
    },
    {
      "source": "51",
      "destination": "150",
      "weight": "10.9"
    },
    {
      "source": "150",
      "destination": "51",
      "weight": "10.9"
    },
    {
      "source": "2",
      "destination": "169",
      "weight": "9.9"
    },
    {
      "source": "169",
      "destination": "2",
      "weight": "9.9"
    },
    {
      "source": "44",
      "destination": "100",
      "weight": "28.4"
    },
    {
      "source": "100",
      "destination": "44",
      "weight": "28.4"
    },
    {
      "source": "170",
      "destination": "100",
      "weight": "25.6"
    },
    {
      "source": "100",
      "destination": "170",
      "weight": "25.6"
    },
    {
      "source": "15",
      "destination": "81",
      "weight": "12.5"
    },
    {
      "source": "81",
      "destination": "15",
      "weight": "12.5"
    },
    {
      "source": "44",
      "destination": "4",
      "weight": "26.5"
    },
    {
      "source": "4",
      "destination": "44",
      "weight": "26.5"
    },
    {
      "source": "113",
      "destination": "100",
      "weight": "18.7"
    },
    {
      "source": "100",
      "destination": "113",
      "weight": "18.7"
    },
    {
      "source": "51",
      "destination": "7",
      "weight": "11.1"
    },
    {
      "source": "7",
      "destination": "51",
      "weight": "11.1"
    },
    {
      "source": "7",
      "destination": "171",
      "weight": "1.1"
    },
    {
      "source": "171",
      "destination": "7",
      "weight": "1.1"
    },
    {
      "source": "51",
      "destination": "171",
      "weight": "11.6"
    },
    {
      "source": "171",
      "destination": "51",
      "weight": "11.6"
    },
    {
      "source": "103",
      "destination": "49",
      "weight": "15.6"
    },
    {
      "source": "49",
      "destination": "103",
      "weight": "15.6"
    },
    {
      "source": "103",
      "destination": "7",
      "weight": "14.2"
    },
    {
      "source": "7",
      "destination": "103",
      "weight": "14.2"
    },
    {
      "source": "172",
      "destination": "9",
      "weight": "34"
    },
    {
      "source": "9",
      "destination": "172",
      "weight": "34"
    },
    {
      "source": "173",
      "destination": "9",
      "weight": "30"
    },
    {
      "source": "9",
      "destination": "173",
      "weight": "30"
    },
    {
      "source": "174",
      "destination": "9",
      "weight": "31"
    },
    {
      "source": "9",
      "destination": "174",
      "weight": "31"
    },
    {
      "source": "175",
      "destination": "9",
      "weight": "29"
    },
    {
      "source": "9",
      "destination": "175",
      "weight": "29"
    },
    {
      "source": "9",
      "destination": "175",
      "weight": "29"
    },
    {
      "source": "176",
      "destination": "9",
      "weight": "25.3"
    },
    {
      "source": "9",
      "destination": "176",
      "weight": "25.3"
    },
    {
      "source": "177",
      "destination": "9",
      "weight": "19.8"
    },
    {
      "source": "9",
      "destination": "177",
      "weight": "19.8"
    },
    {
      "source": "178",
      "destination": "7",
      "weight": "13"
    },
    {
      "source": "7",
      "destination": "178",
      "weight": "13"
    },
    {
      "source": "179",
      "destination": "7",
      "weight": "3"
    },
    {
      "source": "7",
      "destination": "179",
      "weight": "3"
    },
    {
      "source": "7",
      "destination": "15",
      "weight": "13.7"
    },
    {
      "source": "15",
      "destination": "179",
      "weight": "16.7"
    },
    {
      "source": "179",
      "destination": "15",
      "weight": "16.7"
    },
    {
      "source": "152",
      "destination": "7",
      "weight": "5"
    },
    {
      "source": "7",
      "destination": "152",
      "weight": "5"
    },
    {
      "source": "51",
      "destination": "152",
      "weight": "13.3"
    },
    {
      "source": "152",
      "destination": "51",
      "weight": "13.3"
    },
    {
      "source": "51",
      "destination": "180",
      "weight": "11.5"
    },
    {
      "source": "180",
      "destination": "51",
      "weight": "11.5"
    },
    {
      "source": "43",
      "destination": "7",
      "weight": "26.75"
    },
    {
      "source": "7",
      "destination": "43",
      "weight": "26.75"
    },
    {
      "source": "170",
      "destination": "7",
      "weight": "26.9"
    },
    {
      "source": "7",
      "destination": "170",
      "weight": "26.9"
    },
    {
      "source": "35",
      "destination": "9",
      "weight": "28.6"
    },
    {
      "source": "9",
      "destination": "35",
      "weight": "28.6"
    },
    {
      "source": "36",
      "destination": "9",
      "weight": "12.6"
    },
    {
      "source": "9",
      "destination": "36",
      "weight": "12.6"
    },
    {
      "source": "51",
      "destination": "181",
      "weight": "10.5"
    },
    {
      "source": "7",
      "destination": "182",
      "weight": "10.5"
    },
    {
      "source": "51",
      "destination": "183",
      "weight": "12"
    },
    {
      "source": "183",
      "destination": "51",
      "weight": "12"
    },
    {
      "source": "51",
      "destination": "7",
      "weight": "10.5"
    },
    {
      "source": "184",
      "destination": "7",
      "weight": "2"
    },
    {
      "source": "184",
      "destination": "9",
      "weight": "8"
    },
    {
      "source": "9",
      "destination": "184",
      "weight": "8"
    },
    {
      "source": "185",
      "destination": "9",
      "weight": "6.5"
    },
    {
      "source": "185",
      "destination": "51",
      "weight": "10.1"
    },
    {
      "source": "184",
      "destination": "51",
      "weight": "12.4"
    },
    {
      "source": "51",
      "destination": "184",
      "weight": "12.4"
    },
    {
      "source": "69",
      "destination": "7",
      "weight": "14"
    },
    {
      "source": "7",
      "destination": "69",
      "weight": "14"
    },
    {
      "source": "183",
      "destination": "7",
      "weight": "1.5"
    },
    {
      "source": "7",
      "destination": "183",
      "weight": "1.5"
    },
    {
      "source": "51",
      "destination": "118",
      "weight": "13"
    },
    {
      "source": "118",
      "destination": "51",
      "weight": "13"
    },
    {
      "source": "7",
      "destination": "118",
      "weight": "2.5"
    },
    {
      "source": "118",
      "destination": "7",
      "weight": "2.5"
    },
    {
      "source": "51",
      "destination": "186",
      "weight": "10.5"
    },
    {
      "source": "7",
      "destination": "187",
      "weight": "10.5"
    },
    {
      "source": "7",
      "destination": "51",
      "weight": "10.5"
    },
    {
      "source": "66",
      "destination": "7",
      "weight": "19"
    },
    {
      "source": "7",
      "destination": "66",
      "weight": "19"
    },
    {
      "source": "35",
      "destination": "188",
      "weight": "17.7"
    },
    {
      "source": "188",
      "destination": "35",
      "weight": "17.7"
    },
    {
      "source": "46",
      "destination": "188",
      "weight": "19.85"
    },
    {
      "source": "188",
      "destination": "46",
      "weight": "19.5"
    },
    {
      "source": "189",
      "destination": "42",
      "weight": "3.5"
    },
    {
      "source": "42",
      "destination": "189",
      "weight": "3.5"
    },
    {
      "source": "189",
      "destination": "188",
      "weight": "8.65"
    },
    {
      "source": "188",
      "destination": "42",
      "weight": "5.7"
    },
    {
      "source": "42",
      "destination": "188",
      "weight": "5.7"
    },
    {
      "source": "188",
      "destination": "189",
      "weight": "8.65"
    },
    {
      "source": "190",
      "destination": "163",
      "weight": "8.6"
    },
    {
      "source": "163",
      "destination": "190",
      "weight": "8.6"
    },
    {
      "source": "191",
      "destination": "163",
      "weight": "6.2"
    },
    {
      "source": "163",
      "destination": "191",
      "weight": "6.2"
    },
    {
      "source": "39",
      "destination": "42",
      "weight": "3.5"
    },
    {
      "source": "42",
      "destination": "39",
      "weight": "3.5"
    },
    {
      "source": "189",
      "destination": "43",
      "weight": "10.2"
    },
    {
      "source": "43",
      "destination": "189",
      "weight": "10.2"
    },
    {
      "source": "192",
      "destination": "163",
      "weight": "22"
    },
    {
      "source": "163",
      "destination": "192",
      "weight": "22"
    },
    {
      "source": "193",
      "destination": "163",
      "weight": "26"
    },
    {
      "source": "163",
      "destination": "193",
      "weight": "26"
    },
    {
      "source": "194",
      "destination": "163",
      "weight": "22"
    },
    {
      "source": "163",
      "destination": "194",
      "weight": "22"
    },
    {
      "source": "1",
      "destination": "195",
      "weight": "13.3"
    },
    {
      "source": "195",
      "destination": "1",
      "weight": "13.3"
    },
    {
      "source": "43",
      "destination": "44",
      "weight": "4.6"
    },
    {
      "source": "44",
      "destination": "43",
      "weight": "4.6"
    },
    {
      "source": "196",
      "destination": "43",
      "weight": "2.3"
    },
    {
      "source": "43",
      "destination": "196",
      "weight": "2.3"
    },
    {
      "source": "197",
      "destination": "44",
      "weight": "5.4"
    },
    {
      "source": "44",
      "destination": "197",
      "weight": "5.4"
    },
    {
      "source": "162",
      "destination": "35",
      "weight": "16"
    },
    {
      "source": "35",
      "destination": "162",
      "weight": "16"
    },
    {
      "source": "198",
      "destination": "30",
      "weight": "28"
    },
    {
      "source": "30",
      "destination": "198",
      "weight": "28"
    },
    {
      "source": "73",
      "destination": "30",
      "weight": "31.5"
    },
    {
      "source": "30",
      "destination": "73",
      "weight": "31.5"
    },
    {
      "source": "196",
      "destination": "42",
      "weight": "7.7"
    },
    {
      "source": "42",
      "destination": "196",
      "weight": "7.7"
    },
    {
      "source": "196",
      "destination": "15",
      "weight": "24.8"
    },
    {
      "source": "15",
      "destination": "196",
      "weight": "24.8"
    },
    {
      "source": "188",
      "destination": "15",
      "weight": "21.8"
    },
    {
      "source": "15",
      "destination": "188",
      "weight": "21.8"
    },
    {
      "source": "43",
      "destination": "15",
      "weight": "22.5"
    },
    {
      "source": "15",
      "destination": "43",
      "weight": "22.5"
    },
    {
      "source": "199",
      "destination": "43",
      "weight": "17.2"
    },
    {
      "source": "43",
      "destination": "199",
      "weight": "17.2"
    },
    {
      "source": "44",
      "destination": "199",
      "weight": "21.5"
    },
    {
      "source": "42",
      "destination": "200",
      "weight": "25.7"
    },
    {
      "source": "200",
      "destination": "43",
      "weight": "19.3"
    },
    {
      "source": "44",
      "destination": "200",
      "weight": "21.5"
    },
    {
      "source": "43",
      "destination": "200",
      "weight": "19.3"
    },
    {
      "source": "201",
      "destination": "44",
      "weight": "11.2"
    },
    {
      "source": "44",
      "destination": "201",
      "weight": "11.2"
    },
    {
      "source": "202",
      "destination": "15",
      "weight": "25.6"
    },
    {
      "source": "15",
      "destination": "202",
      "weight": "25.6"
    },
    {
      "source": "39",
      "destination": "203",
      "weight": "18.5"
    },
    {
      "source": "2",
      "destination": "91",
      "weight": "11.6"
    },
    {
      "source": "15",
      "destination": "204",
      "weight": "18.5"
    },
    {
      "source": "1",
      "destination": "43",
      "weight": "14.2"
    },
    {
      "source": "43",
      "destination": "1",
      "weight": "14.2"
    },
    {
      "source": "205",
      "destination": "206",
      "weight": "14.2"
    },
    {
      "source": "15",
      "destination": "205",
      "weight": "9.8"
    },
    {
      "source": "206",
      "destination": "15",
      "weight": "23.7"
    },
    {
      "source": "15",
      "destination": "206",
      "weight": "23.7"
    },
    {
      "source": "207",
      "destination": "15",
      "weight": "25.6"
    },
    {
      "source": "15",
      "destination": "207",
      "weight": "25.6"
    },
    {
      "source": "208",
      "destination": "15",
      "weight": "26"
    },
    {
      "source": "15",
      "destination": "209",
      "weight": "26"
    },
    {
      "source": "194",
      "destination": "35",
      "weight": "32.8"
    },
    {
      "source": "35",
      "destination": "194",
      "weight": "32.8"
    },
    {
      "source": "15",
      "destination": "127",
      "weight": "10.1"
    },
    {
      "source": "127",
      "destination": "15",
      "weight": "10.1"
    },
    {
      "source": "15",
      "destination": "185",
      "weight": "12"
    },
    {
      "source": "185",
      "destination": "15",
      "weight": "12"
    },
    {
      "source": "210",
      "destination": "35",
      "weight": "30.5"
    },
    {
      "source": "35",
      "destination": "210",
      "weight": "30.5"
    },
    {
      "source": "1",
      "destination": "211",
      "weight": "21.8"
    },
    {
      "source": "212",
      "destination": "1",
      "weight": "21.8"
    },
    {
      "source": "1",
      "destination": "213",
      "weight": "23.1"
    },
    {
      "source": "213",
      "destination": "1",
      "weight": "23.1"
    },
    {
      "source": "191",
      "destination": "100",
      "weight": "30.8"
    },
    {
      "source": "100",
      "destination": "191",
      "weight": "30.8"
    },
    {
      "source": "191",
      "destination": "2",
      "weight": "23.5"
    },
    {
      "source": "2",
      "destination": "191",
      "weight": "23.5"
    },
    {
      "source": "197",
      "destination": "2",
      "weight": "23.4"
    },
    {
      "source": "2",
      "destination": "197",
      "weight": "23.4"
    },
    {
      "source": "214",
      "destination": "42",
      "weight": "8.9"
    },
    {
      "source": "42",
      "destination": "214",
      "weight": "8.9"
    },
    {
      "source": "215",
      "destination": "42",
      "weight": "6.6"
    },
    {
      "source": "42",
      "destination": "215",
      "weight": "6.6"
    },
    {
      "source": "214",
      "destination": "2",
      "weight": "23.4"
    },
    {
      "source": "2",
      "destination": "214",
      "weight": "23.4"
    },
    {
      "source": "1",
      "destination": "39",
      "weight": "25.3"
    },
    {
      "source": "39",
      "destination": "1",
      "weight": "25.3"
    },
    {
      "source": "216",
      "destination": "42",
      "weight": "2.7"
    },
    {
      "source": "42",
      "destination": "216",
      "weight": "2.7"
    },
    {
      "source": "216",
      "destination": "15",
      "weight": "18.7"
    },
    {
      "source": "15",
      "destination": "216",
      "weight": "18.7"
    },
    {
      "source": "214",
      "destination": "42",
      "weight": "7.4"
    },
    {
      "source": "42",
      "destination": "214",
      "weight": "7.4"
    },
    {
      "source": "42",
      "destination": "214",
      "weight": "7.4"
    },
    {
      "source": "214",
      "destination": "188",
      "weight": "10.1"
    },
    {
      "source": "188",
      "destination": "214",
      "weight": "10.1"
    },
    {
      "source": "1",
      "destination": "42",
      "weight": "21.3"
    },
    {
      "source": "42",
      "destination": "1",
      "weight": "21.3"
    },
    {
      "source": "39",
      "destination": "1",
      "weight": "27.1"
    },
    {
      "source": "35",
      "destination": "42",
      "weight": "13.3"
    },
    {
      "source": "42",
      "destination": "35",
      "weight": "13.3"
    },
    {
      "source": "1",
      "destination": "35",
      "weight": "35.7"
    },
    {
      "source": "35",
      "destination": "1",
      "weight": "35.7"
    },
    {
      "source": "217",
      "destination": "163",
      "weight": "3"
    },
    {
      "source": "163",
      "destination": "217",
      "weight": "3"
    },
    {
      "source": "162",
      "destination": "218",
      "weight": "34"
    },
    {
      "source": "15",
      "destination": "219",
      "weight": "34"
    },
    {
      "source": "162",
      "destination": "220",
      "weight": "33"
    },
    {
      "source": "15",
      "destination": "221",
      "weight": "33"
    },
    {
      "source": "35",
      "destination": "150",
      "weight": "34.1"
    },
    {
      "source": "150",
      "destination": "35",
      "weight": "34.1"
    },
    {
      "source": "222",
      "destination": "189",
      "weight": "13"
    },
    {
      "source": "189",
      "destination": "222",
      "weight": "13"
    },
    {
      "source": "222",
      "destination": "159",
      "weight": "22"
    },
    {
      "source": "159",
      "destination": "222",
      "weight": "22"
    },
    {
      "source": "42",
      "destination": "222",
      "weight": "9.5"
    },
    {
      "source": "222",
      "destination": "159",
      "weight": "22"
    },
    {
      "source": "159",
      "destination": "42",
      "weight": "12.5"
    },
    {
      "source": "159",
      "destination": "222",
      "weight": "22"
    },
    {
      "source": "223",
      "destination": "2",
      "weight": "15.7"
    },
    {
      "source": "2",
      "destination": "223",
      "weight": "15.7"
    },
    {
      "source": "89",
      "destination": "15",
      "weight": "26.4"
    },
    {
      "source": "15",
      "destination": "89",
      "weight": "26.4"
    },
    {
      "source": "1",
      "destination": "15",
      "weight": "26.6"
    },
    {
      "source": "15",
      "destination": "1",
      "weight": "26.6"
    },
    {
      "source": "215",
      "destination": "188",
      "weight": "8.2"
    },
    {
      "source": "188",
      "destination": "197",
      "weight": "8.2"
    },
    {
      "source": "224",
      "destination": "195",
      "weight": "7.6"
    },
    {
      "source": "195",
      "destination": "224",
      "weight": "7.6"
    },
    {
      "source": "195",
      "destination": "42",
      "weight": "8.9"
    },
    {
      "source": "42",
      "destination": "195",
      "weight": "8.9"
    },
    {
      "source": "44",
      "destination": "64",
      "weight": "31"
    },
    {
      "source": "64",
      "destination": "44",
      "weight": "31"
    },
    {
      "source": "44",
      "destination": "26",
      "weight": "37.7"
    },
    {
      "source": "26",
      "destination": "44",
      "weight": "37.7"
    },
    {
      "source": "225",
      "destination": "15",
      "weight": "22.6"
    },
    {
      "source": "15",
      "destination": "225",
      "weight": "22.6"
    },
    {
      "source": "226",
      "destination": "7",
      "weight": "32.5"
    },
    {
      "source": "7",
      "destination": "226",
      "weight": "32.5"
    },
    {
      "source": "120",
      "destination": "127",
      "weight": "8"
    },
    {
      "source": "127",
      "destination": "120",
      "weight": "8"
    },
    {
      "source": "120",
      "destination": "185",
      "weight": "10.2"
    },
    {
      "source": "185",
      "destination": "120",
      "weight": "10.2"
    },
    {
      "source": "227",
      "destination": "2",
      "weight": "22.2"
    },
    {
      "source": "2",
      "destination": "227",
      "weight": "22.2"
    },
    {
      "source": "42",
      "destination": "228",
      "weight": "13.7"
    },
    {
      "source": "35",
      "destination": "42",
      "weight": "13.7"
    },
    {
      "source": "228",
      "destination": "35",
      "weight": "26.1"
    },
    {
      "source": "35",
      "destination": "228",
      "weight": "26.1"
    },
    {
      "source": "229",
      "destination": "15",
      "weight": "19.3"
    },
    {
      "source": "15",
      "destination": "229",
      "weight": "19.3"
    },
    {
      "source": "42",
      "destination": "45",
      "weight": "18.4"
    },
    {
      "source": "205",
      "destination": "35",
      "weight": "30.9"
    },
    {
      "source": "35",
      "destination": "205",
      "weight": "30.9"
    },
    {
      "source": "163",
      "destination": "15",
      "weight": "24"
    },
    {
      "source": "15",
      "destination": "163",
      "weight": "24"
    },
    {
      "source": "162",
      "destination": "188",
      "weight": "17.1"
    },
    {
      "source": "188",
      "destination": "162",
      "weight": "17.1"
    },
    {
      "source": "44",
      "destination": "188",
      "weight": "8.3"
    },
    {
      "source": "188",
      "destination": "44",
      "weight": "8.3"
    },
    {
      "source": "162",
      "destination": "163",
      "weight": "8.8"
    },
    {
      "source": "163",
      "destination": "162",
      "weight": "8.8"
    },
    {
      "source": "224",
      "destination": "39",
      "weight": "24"
    },
    {
      "source": "39",
      "destination": "224",
      "weight": "24"
    },
    {
      "source": "224",
      "destination": "35",
      "weight": "32.5"
    },
    {
      "source": "35",
      "destination": "224",
      "weight": "32.5"
    },
    {
      "source": "89",
      "destination": "30",
      "weight": "28.5"
    },
    {
      "source": "30",
      "destination": "89",
      "weight": "28.5"
    },
    {
      "source": "188",
      "destination": "30",
      "weight": "28.8"
    },
    {
      "source": "30",
      "destination": "188",
      "weight": "28.8"
    },
    {
      "source": "214",
      "destination": "195",
      "weight": "13"
    },
    {
      "source": "195",
      "destination": "214",
      "weight": "13"
    },
    {
      "source": "230",
      "destination": "15",
      "weight": "46.6"
    },
    {
      "source": "15",
      "destination": "230",
      "weight": "46.6"
    },
    {
      "source": "230",
      "destination": "39",
      "weight": "27.6"
    },
    {
      "source": "39",
      "destination": "230",
      "weight": "27.6"
    },
    {
      "source": "12",
      "destination": "35",
      "weight": "35"
    },
    {
      "source": "35",
      "destination": "12",
      "weight": "35"
    },
    {
      "source": "41",
      "destination": "35",
      "weight": "8.5"
    },
    {
      "source": "35",
      "destination": "41",
      "weight": "8.5"
    },
    {
      "source": "35",
      "destination": "231",
      "weight": "16"
    },
    {
      "source": "232",
      "destination": "233",
      "weight": "16"
    },
    {
      "source": "232",
      "destination": "39",
      "weight": "5.5"
    },
    {
      "source": "39",
      "destination": "232",
      "weight": "5.5"
    },
    {
      "source": "232",
      "destination": "35",
      "weight": "14"
    },
    {
      "source": "35",
      "destination": "232",
      "weight": "14"
    },
    {
      "source": "234",
      "destination": "163",
      "weight": "10.7"
    },
    {
      "source": "163",
      "destination": "234",
      "weight": "10.7"
    },
    {
      "source": "235",
      "destination": "163",
      "weight": "9"
    },
    {
      "source": "163",
      "destination": "235",
      "weight": "9"
    },
    {
      "source": "236",
      "destination": "44",
      "weight": "24.9"
    },
    {
      "source": "44",
      "destination": "236",
      "weight": "25.9"
    },
    {
      "source": "15",
      "destination": "89",
      "weight": "16.9"
    },
    {
      "source": "7",
      "destination": "89",
      "weight": "24.7"
    },
    {
      "source": "44",
      "destination": "237",
      "weight": "22.7"
    },
    {
      "source": "15",
      "destination": "238",
      "weight": "22.7"
    },
    {
      "source": "226",
      "destination": "191",
      "weight": "18.5"
    },
    {
      "source": "191",
      "destination": "226",
      "weight": "18.5"
    },
    {
      "source": "239",
      "destination": "41",
      "weight": "11.4"
    },
    {
      "source": "41",
      "destination": "239",
      "weight": "11.4"
    },
    {
      "source": "191",
      "destination": "39",
      "weight": "17"
    },
    {
      "source": "39",
      "destination": "191",
      "weight": "17"
    },
    {
      "source": "189",
      "destination": "163",
      "weight": "10.8"
    },
    {
      "source": "163",
      "destination": "189",
      "weight": "10.8"
    },
    {
      "source": "43",
      "destination": "2",
      "weight": "17.1"
    },
    {
      "source": "2",
      "destination": "43",
      "weight": "17.1"
    },
    {
      "source": "89",
      "destination": "89",
      "weight": "14.5"
    },
    {
      "source": "1",
      "destination": "44",
      "weight": "20.9"
    },
    {
      "source": "44",
      "destination": "1",
      "weight": "20.9"
    },
    {
      "source": "1",
      "destination": "240",
      "weight": "10"
    },
    {
      "source": "241",
      "destination": "1",
      "weight": "10"
    },
    {
      "source": "44",
      "destination": "242",
      "weight": "31.2"
    },
    {
      "source": "100",
      "destination": "243",
      "weight": "31.2"
    },
    {
      "source": "44",
      "destination": "244",
      "weight": "35.7"
    },
    {
      "source": "66",
      "destination": "243",
      "weight": "35.7"
    },
    {
      "source": "44",
      "destination": "245",
      "weight": "30.9"
    },
    {
      "source": "44",
      "destination": "42",
      "weight": "9.3"
    },
    {
      "source": "42",
      "destination": "44",
      "weight": "9.3"
    },
    {
      "source": "100",
      "destination": "246",
      "weight": "23.5"
    },
    {
      "source": "206",
      "destination": "42",
      "weight": "23"
    },
    {
      "source": "42",
      "destination": "206",
      "weight": "9.6"
    },
    {
      "source": "66",
      "destination": "246",
      "weight": "28"
    },
    {
      "source": "7",
      "destination": "246",
      "weight": "23.2"
    },
    {
      "source": "206",
      "destination": "245",
      "weight": "32.9"
    },
    {
      "source": "7",
      "destination": "247",
      "weight": "32.9"
    },
    {
      "source": "7",
      "destination": "243",
      "weight": "30.9"
    },
    {
      "source": "120",
      "destination": "147",
      "weight": "7"
    },
    {
      "source": "147",
      "destination": "120",
      "weight": "7"
    },
    {
      "source": "120",
      "destination": "165",
      "weight": "9"
    },
    {
      "source": "165",
      "destination": "120",
      "weight": "9"
    },
    {
      "source": "15",
      "destination": "165",
      "weight": "10.5"
    },
    {
      "source": "165",
      "destination": "15",
      "weight": "10.5"
    },
    {
      "source": "15",
      "destination": "9",
      "weight": "7.5"
    },
    {
      "source": "9",
      "destination": "15",
      "weight": "7.5"
    },
    {
      "source": "19",
      "destination": "248",
      "weight": "5.3"
    },
    {
      "source": "248",
      "destination": "19",
      "weight": "5.3"
    },
    {
      "source": "49",
      "destination": "249",
      "weight": "19"
    },
    {
      "source": "249",
      "destination": "49",
      "weight": "19"
    },
    {
      "source": "44",
      "destination": "7",
      "weight": "28.95"
    },
    {
      "source": "7",
      "destination": "44",
      "weight": "28.95"
    },
    {
      "source": "1",
      "destination": "7",
      "weight": "33.7"
    },
    {
      "source": "7",
      "destination": "1",
      "weight": "33.7"
    },
    {
      "source": "44",
      "destination": "7",
      "weight": "33.7"
    },
    {
      "source": "7",
      "destination": "44",
      "weight": "33.7"
    },
    {
      "source": "5",
      "destination": "49",
      "weight": "25.9"
    },
    {
      "source": "49",
      "destination": "5",
      "weight": "25.9"
    },
    {
      "source": "33",
      "destination": "28",
      "weight": "9.4"
    },
    {
      "source": "28",
      "destination": "33",
      "weight": "9.4"
    },
    {
      "source": "250",
      "destination": "29",
      "weight": "17.7"
    },
    {
      "source": "29",
      "destination": "250",
      "weight": "17.7"
    },
    {
      "source": "31",
      "destination": "15",
      "weight": "16.8"
    },
    {
      "source": "15",
      "destination": "31",
      "weight": "16.8"
    },
    {
      "source": "251",
      "destination": "15",
      "weight": "27.7"
    },
    {
      "source": "15",
      "destination": "251",
      "weight": "27.7"
    },
    {
      "source": "252",
      "destination": "119",
      "weight": "22.8"
    },
    {
      "source": "119",
      "destination": "252",
      "weight": "22.8"
    },
    {
      "source": "253",
      "destination": "29",
      "weight": "24.8"
    },
    {
      "source": "29",
      "destination": "253",
      "weight": "24.8"
    },
    {
      "source": "10",
      "destination": "51",
      "weight": "13.2"
    },
    {
      "source": "51",
      "destination": "10",
      "weight": "13.2"
    },
    {
      "source": "254",
      "destination": "51",
      "weight": "13.2"
    },
    {
      "source": "51",
      "destination": "254",
      "weight": "13.2"
    },
    {
      "source": "255",
      "destination": "9",
      "weight": "30.1"
    },
    {
      "source": "9",
      "destination": "255",
      "weight": "30.1"
    },
    {
      "source": "251",
      "destination": "30",
      "weight": "26"
    },
    {
      "source": "30",
      "destination": "251",
      "weight": "26"
    },
    {
      "source": "251",
      "destination": "9",
      "weight": "23.2"
    },
    {
      "source": "9",
      "destination": "251",
      "weight": "23.2"
    },
    {
      "source": "9",
      "destination": "51",
      "weight": "4.3"
    },
    {
      "source": "10",
      "destination": "51",
      "weight": "15.4"
    },
    {
      "source": "51",
      "destination": "10",
      "weight": "14.4"
    },
    {
      "source": "33",
      "destination": "120",
      "weight": "11.5"
    },
    {
      "source": "120",
      "destination": "33",
      "weight": "11.5"
    },
    {
      "source": "120",
      "destination": "9",
      "weight": "4.3"
    },
    {
      "source": "9",
      "destination": "120",
      "weight": "4.3"
    },
    {
      "source": "31",
      "destination": "120",
      "weight": "13.9"
    },
    {
      "source": "120",
      "destination": "31",
      "weight": "13.9"
    },
    {
      "source": "19",
      "destination": "32",
      "weight": "7.8"
    },
    {
      "source": "32",
      "destination": "19",
      "weight": "7.8"
    },
    {
      "source": "19",
      "destination": "33",
      "weight": "9.4"
    },
    {
      "source": "33",
      "destination": "19",
      "weight": "9.4"
    },
    {
      "source": "32",
      "destination": "15",
      "weight": "10.3"
    },
    {
      "source": "15",
      "destination": "32",
      "weight": "10.3"
    },
    {
      "source": "33",
      "destination": "15",
      "weight": "12.3"
    },
    {
      "source": "15",
      "destination": "33",
      "weight": "12.3"
    },
    {
      "source": "256",
      "destination": "257",
      "weight": "7.5"
    },
    {
      "source": "257",
      "destination": "256",
      "weight": "7.5"
    },
    {
      "source": "87",
      "destination": "257",
      "weight": "5.6"
    },
    {
      "source": "258",
      "destination": "257",
      "weight": "7.8"
    },
    {
      "source": "257",
      "destination": "258",
      "weight": "7.8"
    },
    {
      "source": "257",
      "destination": "87",
      "weight": "5.6"
    },
    {
      "source": "259",
      "destination": "257",
      "weight": "6.2"
    },
    {
      "source": "257",
      "destination": "259",
      "weight": "6.2"
    },
    {
      "source": "260",
      "destination": "9",
      "weight": "6.3"
    },
    {
      "source": "9",
      "destination": "260",
      "weight": "6.3"
    },
    {
      "source": "15",
      "destination": "9",
      "weight": "5.45"
    },
    {
      "source": "9",
      "destination": "15",
      "weight": "5.45"
    },
    {
      "source": "261",
      "destination": "119",
      "weight": "9"
    },
    {
      "source": "119",
      "destination": "261",
      "weight": "9"
    },
    {
      "source": "262",
      "destination": "28",
      "weight": "12"
    },
    {
      "source": "28",
      "destination": "262",
      "weight": "12"
    },
    {
      "source": "263",
      "destination": "9",
      "weight": "32"
    },
    {
      "source": "9",
      "destination": "263",
      "weight": "32"
    },
    {
      "source": "30",
      "destination": "264",
      "weight": "10.2"
    },
    {
      "source": "264",
      "destination": "265",
      "weight": "15.5"
    },
    {
      "source": "265",
      "destination": "264",
      "weight": "15.5"
    },
    {
      "source": "266",
      "destination": "9",
      "weight": "11.5"
    },
    {
      "source": "9",
      "destination": "266",
      "weight": "11.5"
    },
    {
      "source": "100",
      "destination": "9",
      "weight": "10"
    },
    {
      "source": "9",
      "destination": "100",
      "weight": "10"
    },
    {
      "source": "82",
      "destination": "49",
      "weight": "11.7"
    },
    {
      "source": "49",
      "destination": "82",
      "weight": "11.7"
    },
    {
      "source": "9",
      "destination": "82",
      "weight": "6.5"
    },
    {
      "source": "100",
      "destination": "103",
      "weight": "20"
    },
    {
      "source": "103",
      "destination": "100",
      "weight": "20"
    },
    {
      "source": "30",
      "destination": "70",
      "weight": "4.8"
    },
    {
      "source": "70",
      "destination": "30",
      "weight": "4.8"
    },
    {
      "source": "158",
      "destination": "49",
      "weight": "16.5"
    },
    {
      "source": "49",
      "destination": "158",
      "weight": "16.5"
    },
    {
      "source": "29",
      "destination": "30",
      "weight": "6"
    },
    {
      "source": "30",
      "destination": "29",
      "weight": "6"
    },
    {
      "source": "267",
      "destination": "30",
      "weight": "29.1"
    },
    {
      "source": "30",
      "destination": "267",
      "weight": "29"
    },
    {
      "source": "102",
      "destination": "9",
      "weight": "17.2"
    },
    {
      "source": "9",
      "destination": "102",
      "weight": "17.2"
    },
    {
      "source": "265",
      "destination": "81",
      "weight": "13.5"
    },
    {
      "source": "81",
      "destination": "265",
      "weight": "13.5"
    },
    {
      "source": "31",
      "destination": "167",
      "weight": "15"
    },
    {
      "source": "167",
      "destination": "31",
      "weight": "15"
    },
    {
      "source": "49",
      "destination": "16",
      "weight": "14.8"
    },
    {
      "source": "16",
      "destination": "49",
      "weight": "14.8"
    },
    {
      "source": "268",
      "destination": "30",
      "weight": "31.3"
    },
    {
      "source": "30",
      "destination": "268",
      "weight": "31.3"
    },
    {
      "source": "269",
      "destination": "11",
      "weight": "28"
    },
    {
      "source": "11",
      "destination": "269",
      "weight": "28"
    },
    {
      "source": "269",
      "destination": "167",
      "weight": "22"
    },
    {
      "source": "167",
      "destination": "269",
      "weight": "22"
    },
    {
      "source": "270",
      "destination": "167",
      "weight": "27.3"
    },
    {
      "source": "167",
      "destination": "270",
      "weight": "27.3"
    },
    {
      "source": "270",
      "destination": "11",
      "weight": "33.3"
    },
    {
      "source": "11",
      "destination": "270",
      "weight": "33.3"
    },
    {
      "source": "265",
      "destination": "4",
      "weight": "14.3"
    },
    {
      "source": "4",
      "destination": "265",
      "weight": "14.3"
    },
    {
      "source": "9",
      "destination": "70",
      "weight": "5.2"
    },
    {
      "source": "70",
      "destination": "9",
      "weight": "5.2"
    },
    {
      "source": "166",
      "destination": "49",
      "weight": "20.9"
    },
    {
      "source": "49",
      "destination": "166",
      "weight": "20.9"
    },
    {
      "source": "4",
      "destination": "103",
      "weight": "18.7"
    },
    {
      "source": "103",
      "destination": "4",
      "weight": "18.7"
    },
    {
      "source": "62",
      "destination": "11",
      "weight": "13.5"
    },
    {
      "source": "11",
      "destination": "62",
      "weight": "13.5"
    },
    {
      "source": "49",
      "destination": "81",
      "weight": "13.8"
    },
    {
      "source": "81",
      "destination": "49",
      "weight": "13.8"
    },
    {
      "source": "100",
      "destination": "100",
      "weight": "24.5"
    },
    {
      "source": "100",
      "destination": "30",
      "weight": "14.2"
    },
    {
      "source": "30",
      "destination": "100",
      "weight": "14.2"
    },
    {
      "source": "166",
      "destination": "30",
      "weight": "19.1"
    },
    {
      "source": "30",
      "destination": "166",
      "weight": "19.1"
    },
    {
      "source": "167",
      "destination": "73",
      "weight": "13.9"
    },
    {
      "source": "11",
      "destination": "167",
      "weight": "6"
    },
    {
      "source": "167",
      "destination": "11",
      "weight": "6"
    },
    {
      "source": "271",
      "destination": "11",
      "weight": "29.9"
    },
    {
      "source": "11",
      "destination": "100",
      "weight": "7.9"
    },
    {
      "source": "100",
      "destination": "11",
      "weight": "7.9"
    },
    {
      "source": "11",
      "destination": "271",
      "weight": "29.9"
    },
    {
      "source": "137",
      "destination": "103",
      "weight": "20.8"
    },
    {
      "source": "103",
      "destination": "137",
      "weight": "20.8"
    },
    {
      "source": "128",
      "destination": "103",
      "weight": "8.3"
    },
    {
      "source": "103",
      "destination": "128",
      "weight": "8.3"
    },
    {
      "source": "137",
      "destination": "124",
      "weight": "31.5"
    },
    {
      "source": "124",
      "destination": "137",
      "weight": "31.5"
    },
    {
      "source": "272",
      "destination": "2",
      "weight": "12.3"
    },
    {
      "source": "2",
      "destination": "272",
      "weight": "12.3"
    },
    {
      "source": "273",
      "destination": "2",
      "weight": "9.5"
    },
    {
      "source": "2",
      "destination": "273",
      "weight": "9.5"
    },
    {
      "source": "274",
      "destination": "2",
      "weight": "10.7"
    },
    {
      "source": "2",
      "destination": "274",
      "weight": "10.4"
    },
    {
      "source": "15",
      "destination": "81",
      "weight": "12.9"
    },
    {
      "source": "81",
      "destination": "15",
      "weight": "12.9"
    },
    {
      "source": "2",
      "destination": "100",
      "weight": "9.9"
    },
    {
      "source": "100",
      "destination": "2",
      "weight": "9.9"
    },
    {
      "source": "166",
      "destination": "80",
      "weight": "9"
    },
    {
      "source": "166",
      "destination": "100",
      "weight": "5.6"
    },
    {
      "source": "167",
      "destination": "166",
      "weight": "23.6"
    },
    {
      "source": "166",
      "destination": "2",
      "weight": "16.4"
    },
    {
      "source": "166",
      "destination": "166",
      "weight": "30.8"
    },
    {
      "source": "275",
      "destination": "11",
      "weight": "37.4"
    },
    {
      "source": "11",
      "destination": "275",
      "weight": "37.4"
    },
    {
      "source": "80",
      "destination": "276",
      "weight": "24.5"
    },
    {
      "source": "275",
      "destination": "80",
      "weight": "33.5"
    },
    {
      "source": "80",
      "destination": "275",
      "weight": "33.5"
    },
    {
      "source": "276",
      "destination": "11",
      "weight": "28.4"
    },
    {
      "source": "11",
      "destination": "276",
      "weight": "28.4"
    },
    {
      "source": "277",
      "destination": "278",
      "weight": "15.3"
    },
    {
      "source": "278",
      "destination": "2",
      "weight": "20.8"
    },
    {
      "source": "2",
      "destination": "278",
      "weight": "20.8"
    },
    {
      "source": "4",
      "destination": "4",
      "weight": "16.9"
    },
    {
      "source": "279",
      "destination": "280",
      "weight": "12"
    },
    {
      "source": "11",
      "destination": "281",
      "weight": "12"
    },
    {
      "source": "282",
      "destination": "11",
      "weight": "15"
    },
    {
      "source": "11",
      "destination": "282",
      "weight": "15"
    },
    {
      "source": "84",
      "destination": "19",
      "weight": "10.8"
    },
    {
      "source": "19",
      "destination": "84",
      "weight": "10.8"
    },
    {
      "source": "283",
      "destination": "11",
      "weight": "12.5"
    },
    {
      "source": "11",
      "destination": "283",
      "weight": "12.5"
    },
    {
      "source": "279",
      "destination": "284",
      "weight": "12"
    },
    {
      "source": "11",
      "destination": "285",
      "weight": "12"
    },
    {
      "source": "286",
      "destination": "11",
      "weight": "15.5"
    },
    {
      "source": "11",
      "destination": "286",
      "weight": "15.5"
    },
    {
      "source": "9",
      "destination": "287",
      "weight": "11.6"
    },
    {
      "source": "287",
      "destination": "49",
      "weight": "16.8"
    },
    {
      "source": "49",
      "destination": "287",
      "weight": "16.8"
    },
    {
      "source": "259",
      "destination": "9",
      "weight": "7.5"
    },
    {
      "source": "9",
      "destination": "259",
      "weight": "7.5"
    },
    {
      "source": "288",
      "destination": "103",
      "weight": "19"
    },
    {
      "source": "103",
      "destination": "288",
      "weight": "19"
    },
    {
      "source": "87",
      "destination": "9",
      "weight": "7.3"
    },
    {
      "source": "258",
      "destination": "9",
      "weight": "9"
    },
    {
      "source": "9",
      "destination": "258",
      "weight": "9"
    },
    {
      "source": "9",
      "destination": "87",
      "weight": "7.3"
    },
    {
      "source": "289",
      "destination": "2",
      "weight": "9"
    },
    {
      "source": "2",
      "destination": "289",
      "weight": "9"
    },
    {
      "source": "15",
      "destination": "82",
      "weight": "9.5"
    },
    {
      "source": "82",
      "destination": "15",
      "weight": "9.5"
    },
    {
      "source": "48",
      "destination": "11",
      "weight": "12.6"
    },
    {
      "source": "11",
      "destination": "48",
      "weight": "12.6"
    },
    {
      "source": "52",
      "destination": "290",
      "weight": "19.1"
    },
    {
      "source": "290",
      "destination": "52",
      "weight": "19.1"
    },
    {
      "source": "81",
      "destination": "15",
      "weight": "11.2"
    },
    {
      "source": "15",
      "destination": "4",
      "weight": "11.4"
    },
    {
      "source": "4",
      "destination": "15",
      "weight": "11.4"
    },
    {
      "source": "14",
      "destination": "82",
      "weight": "18.2"
    },
    {
      "source": "82",
      "destination": "14",
      "weight": "18.2"
    },
    {
      "source": "14",
      "destination": "4",
      "weight": "21.1"
    },
    {
      "source": "4",
      "destination": "14",
      "weight": "21.1"
    },
    {
      "source": "291",
      "destination": "14",
      "weight": "23.3"
    },
    {
      "source": "14",
      "destination": "291",
      "weight": "23.3"
    },
    {
      "source": "147",
      "destination": "100",
      "weight": "12.5"
    },
    {
      "source": "100",
      "destination": "147",
      "weight": "12.5"
    },
    {
      "source": "292",
      "destination": "103",
      "weight": "27.1"
    },
    {
      "source": "103",
      "destination": "292",
      "weight": "27.1"
    },
    {
      "source": "26",
      "destination": "103",
      "weight": "21.7"
    },
    {
      "source": "103",
      "destination": "26",
      "weight": "21.7"
    },
    {
      "source": "64",
      "destination": "100",
      "weight": "29.4"
    },
    {
      "source": "100",
      "destination": "64",
      "weight": "29.4"
    },
    {
      "source": "103",
      "destination": "4",
      "weight": "17.9"
    },
    {
      "source": "4",
      "destination": "103",
      "weight": "17.9"
    },
    {
      "source": "36",
      "destination": "4",
      "weight": "15.9"
    },
    {
      "source": "4",
      "destination": "36",
      "weight": "15.9"
    },
    {
      "source": "190",
      "destination": "2",
      "weight": "20.6"
    },
    {
      "source": "2",
      "destination": "190",
      "weight": "20.6"
    },
    {
      "source": "1",
      "destination": "39",
      "weight": "24"
    },
    {
      "source": "39",
      "destination": "1",
      "weight": "24"
    },
    {
      "source": "80",
      "destination": "64",
      "weight": "25.4"
    },
    {
      "source": "64",
      "destination": "9",
      "weight": "19.4"
    },
    {
      "source": "9",
      "destination": "64",
      "weight": "19.4"
    },
    {
      "source": "9",
      "destination": "293",
      "weight": "4.5"
    },
    {
      "source": "293",
      "destination": "9",
      "weight": "4.5"
    },
    {
      "source": "7",
      "destination": "294",
      "weight": "12.5"
    },
    {
      "source": "294",
      "destination": "7",
      "weight": "12.5"
    },
    {
      "source": "295",
      "destination": "163",
      "weight": "8.5"
    },
    {
      "source": "163",
      "destination": "295",
      "weight": "8.5"
    },
    {
      "source": "115",
      "destination": "177",
      "weight": "21.9"
    },
    {
      "source": "177",
      "destination": "115",
      "weight": "21.9"
    },
    {
      "source": "115",
      "destination": "44",
      "weight": "26.5"
    },
    {
      "source": "44",
      "destination": "115",
      "weight": "26.5"
    },
    {
      "source": "64",
      "destination": "15",
      "weight": "15.3"
    },
    {
      "source": "15",
      "destination": "64",
      "weight": "15.3"
    },
    {
      "source": "296",
      "destination": "9",
      "weight": "9.3"
    },
    {
      "source": "9",
      "destination": "296",
      "weight": "9.3"
    },
    {
      "source": "107",
      "destination": "15",
      "weight": "18.8"
    },
    {
      "source": "15",
      "destination": "107",
      "weight": "18.8"
    },
    {
      "source": "44",
      "destination": "15",
      "weight": "24"
    },
    {
      "source": "15",
      "destination": "44",
      "weight": "24"
    },
    {
      "source": "44",
      "destination": "9",
      "weight": "23"
    },
    {
      "source": "9",
      "destination": "44",
      "weight": "23"
    },
    {
      "source": "2",
      "destination": "297",
      "weight": "17.9"
    },
    {
      "source": "297",
      "destination": "2",
      "weight": "17.9"
    },
    {
      "source": "134",
      "destination": "51",
      "weight": "18.1"
    },
    {
      "source": "51",
      "destination": "134",
      "weight": "18.1"
    },
    {
      "source": "62",
      "destination": "49",
      "weight": "22.8"
    },
    {
      "source": "49",
      "destination": "62",
      "weight": "22.8"
    }
  ]
}